"Affiliation","Corrected_Affiliation","Affiliation_Used","Frequency","lat","lon","display_name","country","state","city","country_from_coords"
"University of Oxford; Nuffield College, University of Oxford; Oxford University; All Souls College, Oxford University; Oxford; St Hilda's College, Oxford; St Hilda's College, University of Oxford; University of Oxford, Nuffield College","NA; University of Oxford; University of Oxford; University of Oxford; University of Oxford; University of Oxford; University of Oxford; University of Oxford","University of Oxford",63,51.7583164,-1.2651449,"Oxford University Press, Jericho, Oxford, Oxfordshire, England, OX2 6DP, United Kingdom",NA,NA,NA,"United Kingdom"
"Aarhus University; Department of Political Science, Aarhus University; Aarhus University; University of Gothenburg; Aarhus Unversity; University of Aarhus","NA; Aarhus University; Aarhus University; Aarhus University; Aarhus University","Aarhus University",61,56.1670905,10.2026177,"Aarhus Universitet, Ringkøbingvej, Fuglebakken, Aarhus, Aarhus Kommune, Region Midtjylland, 8000, Danmark",NA,NA,NA,"Denmark"
"University of Gothenburg; Gothenburg University; Department of Political Science, University of Gothenburg; Governance and Local Development Institute; University of Gothenburg; University of Gothenburg; Sahlgrenska Academy, Gothenburg; University of Gothenburg; Aarhus University","NA; University of Gothenburg; University of Gothenburg; University of Gothenburg; University of Gothenburg; University of Gothenburg","University of Gothenburg",55,57.6985465,11.9712422,"Göteborgs universitet, 5, Universitetsplatsen, Vasastaden, Centrum, Göteborg, Göteborgs Stad, Västra Götalands län, 411 24, Sverige",NA,NA,NA,"Sweden"
"Universidad Carlos III de Madrid; Universidad Carlos III; Universidad Carlos III; Juan March Institute; University Carlos 3 Madrid; University Carlos III of Madrid; Carlos III University of Madrid; Carlos III-Juan March Institute/University Carlos III of Madrid; National University of Distance Education and University Carlos III Madrid; Universidad Carlos III de Madrid (UC3M); Universidad Carlos III de Madrid; IC; Universidad Carlos III de Madrid; Instituto Carlos III - Juan March; Universidad Carlos III de Madrid–IC; Carlos III University - IC; Carlos III University Madrid; Carlos III University in Madrid & Carlos III-Juan March Institute; Carlos III-Juan March Institute, Carlos III University; Universidad Carlos III de Madrid; Instituto Mixto Carlos III- Juan March","NA; Universidad Carlos III de Madrid; Universidad Carlos III de Madrid; Universidad Carlos III de Madrid; Universidad Carlos III de Madrid; Universidad Carlos III de Madrid; Universidad Carlos III de Madrid; Universidad Carlos III de Madrid; Universidad Carlos III de Madrid; Universidad Carlos III de Madrid; Universidad Carlos III de Madrid; Universidad Carlos III de Madrid; Universidad Carlos III de Madrid; Universidad Carlos III de Madrid; Universidad Carlos III de Madrid; Universidad Carlos III de Madrid; Universidad Carlos III de Madrid","Universidad Carlos III de Madrid",53,40.3150937,-3.7248793,"Universidad Carlos III de Madrid, Calle Pensamiento, Las Margaritas, Getafe, Comunidad de Madrid, 28903, España",NA,NA,NA,"Spain"
"University of Barcelona; Universitat Autònoma de Barcelona; Autonomous University of Barcelona; Universitat de Barcelona; Universitat Autònoma de Barcelona - UAB; University of Barcelona; Barcelona Supercomputing Center; Universitat Autònoma de Barcelona (UAB); Universitat Autònoma de Barcelona; University of Oslo; Universitat de Barcelona (UB); University of Barcelona (IEB, IPERC), Ivàlua; University of Barcelona, Institut Barcelona d'Estudis Internacionals; University of Basel; University of Zurich","NA; University of Barcelona; University of Barcelona; University of Barcelona; University of Barcelona; University of Barcelona; University of Barcelona; University of Barcelona; University of Barcelona; University of Barcelona; University of Barcelona; University of Barcelona","University of Barcelona",51,41.3868595,2.1634784,"Universitat de Barcelona, Gran Via de les Corts Catalanes, l'Antiga Esquerra de l'Eixample, Eixample, Barcelona, Barcelonès, Barcelona, Catalunya, 08011, España",NA,NA,NA,"Spain"
"University of Zurich; University of Zurich (UZH); University of Zurich; University of Konstanz","NA; University of Zurich; University of Zurich","University of Zurich",49,47.3737735,8.550955,"Universität Zürich (UZH), Zentrum, Doktor-Faust-Gasse, Hochschulen, Altstadt, Zürich, Bezirk Zürich, Zürich, 8092, Schweiz/Suisse/Svizzera/Svizra",NA,NA,NA,"Switzerland"
"European University Institute; EUI; European University Institute (EUI); European University Institute; King's College London; European University Institute; McGill University; European University Institute; University of Essex; European University Institute; University of Lausanne","NA; European University Institute; European University Institute; European University Institute; European University Institute; European University Institute; European University Institute","European University Institute",47,41.9941115,21.4238237,"Европски универзитет, 68, Булевар Свети Климент Охридски, Буњаковец, Центар, Скопје, Општина Центар, Град Скопје, 1000, Северна Македонија",NA,NA,NA,"North Macedonia"
"ETH Zurich; ETH Zürich; ETH Zurich, Center for International Studies (CIS); ETH Zurich; Immigration Policy Lab","NA; ETH Zurich; ETH Zurich; ETH Zurich","ETH Zurich",44,47.4083275,8.507564,"ETH Zürich, Hönggerberg, Schauenbergstrasse, Höngg, Kreis 10, Zürich, Bezirk Zürich, Zürich, 8093, Schweiz/Suisse/Svizzera/Svizra",NA,NA,NA,"Switzerland"
"London School of Economics; London School of Economics and Political Science; LSE; . London School of Economics and Political Science; Department of Government, LSE; Department of Government, London School of Economics and Political Science; London School of Economic and Political Science; London School of Economics and Political Sciences; London School of Economics; Potsdam University","NA; London School of Economics; London School of Economics; London School of Economics; London School of Economics; London School of Economics; London School of Economics; London School of Economics; London School of Economics","London School of Economics",42,51.5146049,-0.1164525,"London School of Economics and Political Science, Houghton Street, St Clement Danes, Holborn, London, Greater London, England, WC2A 2AE, United Kingdom",NA,NA,NA,"United Kingdom"
"Humboldt-Universität zu Berlin; Humboldt University of Berlin; Humboldt University Berlin; Humboldt University; Humboldt Universität zu Berlin; Humboldt-University of Berlin; Humboldt-University Berlin; Humboldt-Universität zu Berlin; Leibniz Institute of Vegetable and Ornamental Crops (IGZ); International Security and Development Center; Humboldt-Universität zu Berlin","NA; Humboldt-Universität zu Berlin; Humboldt-Universität zu Berlin; Humboldt-Universität zu Berlin; Humboldt-Universität zu Berlin; Humboldt-Universität zu Berlin; Humboldt-Universität zu Berlin; Humboldt-Universität zu Berlin; Humboldt-Universität zu Berlin","Humboldt-Universität zu Berlin",36,52.5185793,13.3935975,"Humboldt-Universität zu Berlin - Campus Mitte, Unter den Linden, Dorotheenstadt, Mitte, Berlin, 10117, Deutschland",NA,NA,NA,"Germany"
"University of Mannheim; MZES, University of Mannheim; University of Mannheim, MZES; University of Mannheim; MZES; Collegio Carlo Alberto; University of Mannheim; Mannheim Centre for European Social Research (MZES), University of Mannheim; University of Mannheim; Mannheim Centre for European Social Research (MZES)","NA; University of Mannheim; University of Mannheim; University of Mannheim; University of Mannheim; University of Mannheim; University of Mannheim","University of Mannheim",35,49.4832445,8.4645749,"Universität Mannheim, Bismarckstraße, L2, Innenstadt, Innenstadt/Jungbusch, Mannheim, Baden-Württemberg, 68161, Deutschland",NA,NA,NA,"Germany"
"University of Vienna","NA","University of Vienna",35,48.2020489,16.3856541,"Universität für Musik und darstellende Kunst Wien, 1, Anton-von-Webern-Platz, Botschaftsviertel, KG Landstraße, Landstraße, Wien, 1030, Österreich",NA,NA,NA,"Austria"
"Bocconi University; Bocconi University, Department of Social and Political Sciences; Bocconi; Bocconi University, Department of Computing Sciences","NA; Bocconi University; Bocconi University; Bocconi University","Bocconi University",33,45.4498835,9.1892636,"Università Bocconi, Piazza Angelo Sraffa, Vigentina, Municipio 5, Milano, Lombardia, 20136, Italia",NA,NA,NA,"Italy"
"University of Copenhagen; Department of Political Science, University of Copenhagen; University of Copenhagen; University College London","NA; University of Copenhagen; University of Copenhagen","University of Copenhagen",33,55.6801502,12.572327,"Københavns Universitet, Krystalgade, Nørrevold, Indre By, København, Københavns Kommune, Region Hovedstaden, 1171, Danmark",NA,NA,NA,NA
"University of Oslo; University of Oslo, Departement of Political Science; University of Oslo; Norwegian Institute of Public Health; Department of Political Science, University of Oslo","NA; University of Oslo; University of Oslo; University of Oslo","University of Oslo",33,59.9414173,10.7227683,"Universitetet i Oslo, Trimveien, Gaustad, Nordre Aker, Oslo, 0856, Norge",NA,NA,NA,"Norway"
"University of Amsterdam; University of Amsterdam; Amsterdam Institute for Social Science Research (AISSR); University of Amsterdam; KITLV, Leiden; University of Amsterdam; European University Institute","NA; University of Amsterdam; University of Amsterdam; University of Amsterdam","University of Amsterdam",32,52.3681334,4.8898042,"Universiteit van Amsterdam, Spui, Centrum, Amsterdam, Noord-Holland, Nederland, 1012 XA, Nederland",NA,NA,NA,"Netherlands"
"King's College London; King's College London; University of Copenhagen; King’s College London","NA; King's College London; King's College London","King's College London",31,51.5052366,-0.1115945,"King's College London, Waterloo Campus, Stamford Street, South Bank, Waterloo, London Borough of Lambeth, London, Greater London, England, SE1 9NN, United Kingdom",NA,NA,NA,"United Kingdom"
"University of Konstanz; University of Konstanz, Cluster of Excellence 'The Politics of Inequality'; University of Konstanz; University of Zurich; Konstanz; Cluster of Excellence: The Politics of Inequality, University of Konstanz; Department of History & Sociology, University of Konstanz; University of Konstanz; Goethe University Frankfurt; Universität Konstanz","NA; University of Konstanz; University of Konstanz; University of Konstanz; University of Konstanz; University of Konstanz; University of Konstanz","University of Konstanz",31,47.6899569,9.1882624,"Universität Konstanz, 10, Universitätsstraße, Egg, Konstanz, Verwaltungsgemeinschaft Konstanz, Landkreis Konstanz, Baden-Württemberg, 78464, Deutschland",NA,NA,NA,"Germany"
"Sciences Po; Centre for European Studies and Comparative politics, Sciences Po, Paris, France; Sciences Po Paris; CEE, Sciences Po Paris; Centre for European Studies and Comparative politics, Sciences Po, Paris, France; Cambridge Centre for Environment, Energy and Natural Resource Governance, Department of Land Economy, University of Cambridge, United Kingdom.; Sciences Po; Universitat Pompeu Fabra; médialab, Sciences Po Paris; CNRS, Complex Systems Institute of Paris Île-de-France (ISC-PIF); Learning Transitions, Learning Planet Institute, CY Cergy University; médialab, Sciences Po Paris; Institut Convergences Migrations","NA; Sciences Po; Sciences Po; Sciences Po; Sciences Po; Sciences Po; Sciences Po; Sciences Po","Sciences Po",25,45.7471156,4.8353768,"Institut d'Études Politiques de Lyon, Rue Louis Pasteur, Chinatown, Lyon 7e Arrondissement, Lyon, Métropole de Lyon, Rhône, Auvergne-Rhône-Alpes, France métropolitaine, 69007, France",NA,NA,NA,"France"
"University College London; UCL; Department of Political Science, University College London","NA; University College London; University College London","University College London",22,51.524203,-0.1330007,"University College London, Starcross Street, Fitzrovia, London Borough of Camden, London, Greater London, England, NW1 2HR, United Kingdom",NA,NA,NA,"United Kingdom"
"WZB Berlin Social Science Center; WZB - Berlin Social Science Center; WZB; WZB Berlin; WZB Berlin Social Science Center; Freie Universität Berlin; WZB Berlin Social Science Center; University of Hamburg; WZB Berlin Social Science Center; University of Potsdam; Wissenschaftszentrum Berlin für Sozialforschung","NA; WZB Berlin Social Science Center; WZB Berlin Social Science Center; WZB Berlin Social Science Center; WZB Berlin Social Science Center; WZB Berlin Social Science Center; WZB Berlin Social Science Center; WZB Berlin Social Science Center","WZB Berlin Social Science Center",22,52.506426,13.364831,"WZB Berlin Social Science Center",NA,NA,NA,"Germany"
"Copenhagen Business School; Copenhagen Business University","NA; Copenhagen Business School","Copenhagen Business School",21,55.677873,12.5216155,"Copenhagen Business School (CBS), Porcelænshaven, Frederiksberg, Frederiksberg Kommune, Region Hovedstaden, 2000, Danmark",NA,NA,NA,"Denmark"
"Hertie School; Hertie School Berlin; Humboldt University Berlin; Hertie School of Governance; Hertie School, Berlin; Hertie School; Research Training Group DYNAMICS","NA; Hertie School; Hertie School; Hertie School; Hertie School","Hertie School",21,52.5128521,13.3892713,"Hertie School, 180, Friedrichstraße, Dorotheenstadt, Mitte, Berlin, 10117, Deutschland",NA,NA,NA,"Germany"
"LMU Munich; Geschwister Scholl Institute of Political Science, LMU Munich; Geschwister-Scholl Institute of Political Science LMU Munich.; Department of Sociology, LMU Munich; LMU Munich, University of Freiburg; LMU Munich, University of Freiburg, MZES Mannheim (external fellow); Ludwig-Maximilians University of Munich; Ludwig-Maximilians-Universität (LMU); Ludwig-Maximilians-Universität München","NA; LMU Munich; LMU Munich; LMU Munich; LMU Munich; LMU Munich; LMU Munich; LMU Munich; LMU Munich","LMU Munich",21,48.1521649,11.581535,"Institut für Statistik der LMU, 33, Ludwigstraße, Universität, Maxvorstadt, München, Bayern, 80539, Deutschland",NA,NA,NA,"Germany"
"Leiden University; Leiden University; Università Statale di Milano; University of Leiden","NA; Leiden University; Leiden University","Leiden University",20,52.1686355,4.4597028,"Universiteit Leiden, Ter Haarplein, Schrijversbuurt, Leiden, Zuid-Holland, Nederland, 2321 AS, Nederland",NA,NA,NA,"Netherlands"
"Princeton University; Princeton","NA; Princeton University","Princeton University",20,40.3386752,-74.6583655,"Princeton University, Springdale Road, Institute Area, Princeton, Mercer County, New Jersey, 08540, United States",NA,NA,NA,"United States of America"
"University of Salzburg; Paris Lodron University of Salzburg; University of Salzburg; Ludwig-Maximilians-Universität","NA; University of Salzburg; University of Salzburg","University of Salzburg",20,47.7947829,13.0541597,"Universität Salzburg - Unipark, 1, Erzabt-Klotz-Straße, Nonntal, Salzburg, 5020, Österreich",NA,NA,NA,"Austria"
"New York University; Center for the Study of Social Media and Politics, NYU","NA; New York University","New York University",19,40.7292053,-73.9950148,"New York University, Sullivan Street, University Village, Manhattan, New York County, City of New York, New York, 10012, United States",NA,NA,NA,NA
"Stanford University; Immigration Policy Lab; Immigration Policy Lab, Stanford University","NA; Stanford University; Stanford University","Stanford University",19,37.4313138,-122.1693654,"Stanford University, 408, Panama Mall, Stanford, Santa Clara County, California, 94305, United States",NA,NA,NA,"United States of America"
"University of Cologne; Cologne Center for Comparative Politics, University of Cologne","NA; University of Cologne","University of Cologne",18,50.9280445,6.9281305,"Universität zu Köln, 1, Händelstraße, Komponistenviertel, Rathenauviertel, Neustadt/Süd, Innenstadt, Köln, Nordrhein-Westfalen, 50674, Deutschland",NA,NA,NA,"Germany"
"University of Bergen; Department of Comparative Politics, University of Bergen, Norway","NA; University of Bergen","University of Bergen",16,60.3809342,5.3313021,"Universitet i Bergen, Vestre Strømkaien, Nygård, Bergenhus, Bergen, Vestland, 5008, Norge",NA,NA,NA,"Norway"
"University of Glasgow; . University of Glasgow; University of Glasgow; University of Cambridge, Centre for Business Research","NA; University of Glasgow; University of Glasgow","University of Glasgow",16,55.8674664,-4.2502454,"Glasgow Caledonian University, North Hanover Street, Townhead, Glasgow, Glasgow City, Alba / Scotland, G4 0PY, United Kingdom",NA,NA,NA,"United Kingdom"
"University of St. Gallen; Universität Sankt Gallen","University of St. Gallen; University of St. Gallen","University of St. Gallen",16,47.4300025,9.3722184,"Universität St.Gallen, 50, Dufourstrasse, St. Jakob, St. Gallen, Wahlkreis St. Gallen, St. Gallen, 9000, Schweiz/Suisse/Svizzera/Svizra",NA,NA,NA,"Switzerland"
"University of Rochester; Department of Political Science, University of Rochester; University of Rochester, Department of Political Science","NA; University of Rochester; University of Rochester","University of Rochester",15,43.129864,-77.628784,"University of Rochester River Campus, Firemans, City of Rochester, Monroe County, New York, 14627, United States",NA,NA,NA,"United States of America"
"University of Southampton; Department of Politics and International Relations (PAIR), University of Southampton; Southampton University","NA; University of Southampton; University of Southampton","University of Southampton",15,50.9617568,-1.4239975,"University of Southampton Science Park, Chilworth, Test Valley, Hampshire, England, United Kingdom",NA,NA,NA,"United Kingdom"
"University of Strathclyde; Strathclyde","NA; University of Strathclyde","University of Strathclyde",15,55.8605911,-4.2409692,"Strathclyde University, 40, George Street, Merchant City, Glasgow, Glasgow City, Alba / Scotland, G1 1QE, United Kingdom",NA,NA,NA,"United Kingdom"
"IE University","NA","IE University",14,40.9529322,-4.1186861,"IE Universidad, Calle Cardenal Zúñiga, El Tío Pintado, San Lorenzo, Segovia, Castilla y León, 40003, España",NA,NA,NA,"Spain"
"Stockholm University; University of Stockholm","NA; Stockholm University","Stockholm University",14,59.366141,18.059593,"Stockholms universitet, Svante Arrhenius väg, Lappkärrsberget, Norra Djurgården, Norra innerstadens stadsdelsområde, Stockholm, Stockholms kommun, Stockholms län, 114 17, Sverige",NA,NA,NA,NA
"University of Basel","NA","University of Basel",13,47.5612651,7.5752961,"Faculty of Psychology, University of Basel, 60-62, Missionsstrasse, Am Ring, Grossbasel, Basel, Basel-Stadt, 4055, Schweiz/Suisse/Svizzera/Svizra",NA,NA,NA,"Switzerland"
"University of Birmingham","NA","University of Birmingham",13,52.4515924,-1.9362273,"University, Vincent Drive, Birmingham Research Park, Bournbrook, Metchley, Birmingham, West Midlands, England, B15 2SG, United Kingdom",NA,NA,NA,"United Kingdom"
"University of Salamanca; Universidad de Salamanca; Universidad de Salamanca, Spain; IBEI, Spain; University of Salamanca; Penn State University; Unviersidad de Salamanca","NA; University of Salamanca; University of Salamanca; University of Salamanca; University of Salamanca","University of Salamanca",13,40.4451115,-3.720474,"Universidad Pontificia de Salamanca (Campus de Madrid), Calle Manuel Bartolomé Cossío, Ciudad Universitaria, Moncloa-Aravaca, Madrid, Comunidad de Madrid, 28040, España",NA,NA,NA,"Spain"
"University College Dublin","NA","University College Dublin",12,53.3436671,-6.2544366,"Trinity College Dublin, College Green, Mansion House A Ward 1986, Dublin, County Dublin, Leinster, D02 VR66, Éire / Ireland",NA,NA,NA,"Ireland"
"University of Geneva; Department of Political Science and International Relations, University of Geneva","NA; University of Geneva","University of Geneva",12,46.1985541,6.1509888,"Haute école d'art et de design (HEAD), Boulevard Helvétique, Cité, Genève, 1204, Schweiz/Suisse/Svizzera/Svizra",NA,NA,NA,"Switzerland"
"University of Milan","NA","University of Milan",12,45.4798585,9.2282438,"Politecnico di Milano, Campus Piazza Leonardo, Municipio 3, Milano, Lombardia, Italia",NA,NA,NA,"Italy"
"University of Southern California","NA","University of Southern California",12,34.0218689,-118.2858579,"University of Southern California, Harbor Freeway, Historic South-Central, Los Angeles, Los Angeles County, California, 90089, United States",NA,NA,NA,"United States of America"
"Yale University; Yale","NA; Yale University","Yale University",12,41.2571305,-72.9896696,"Yale University, West Haven, South Central Connecticut Planning Region, 06516, United States",NA,NA,NA,"United States of America"
"New York University Abu Dhabi","NA","New York University Abu Dhabi",11,24.523789,54.4347607,"New York University Abu Dhabi",NA,NA,NA,NA
"University of Manchester","NA","University of Manchester",11,41.0117756,-85.7600095,"Manchester University, 604, East College Avenue, North Manchester, Wabash County, Indiana, 46962, United States",NA,NA,NA,"United States of America"
"Goethe University Frankfurt; Goethe-University Frankfurt; Research Institut Social Cohesion - Goethe University Frankfurt am Main","Goethe-University Frankfurt; NA; Goethe-University Frankfurt","Goethe-University Frankfurt",10,50.1716692,8.6279846,"Didaktik der Biowissenschaften Goethe Universität Frankfurt, 13, Max-von-Laue-Straße, Mertonviertel, Niederursel, Nord-West, Frankfurt am Main, Hessen, 60438, Deutschland",NA,NA,NA,"Germany"
"Department of European Social Research, Saarland University; Interdisciplinary Institute for Societal Computing, Saarland University; Saarland University","Saarland University; NA","Saarland University",10,49.2542853,7.0415071,"Universität des Saarlandes, Campus, Universität, St. Johann, Bezirk Mitte, Saarbrücken, Regionalverband Saarbrücken, Saarland, 66123, Deutschland",NA,NA,NA,"Germany"
"Universitat Pompeu Fabra; Pompeu Fabra; Pompeu Fabra University; Universitat Pompeu Fabra, Spain","NA; Universitat Pompeu Fabra; Universitat Pompeu Fabra; Universitat Pompeu Fabra","Universitat Pompeu Fabra",10,41.3892781,2.1911055,"Campus Ciutadella Universitat Pompeu Fabra, Carrer de Villena, la Vila Olímpica del Poblenou, Sant Martí, Barcelona, Barcelonès, Barcelona, Catalunya, 08003, España",NA,NA,NA,"Spain"
"University of California, Berkeley; UC Berkeley; Bocconi; University of California Berkeley; Berkeley; UC Berkeley","NA; University of California, Berkeley; University of California, Berkeley; University of California, Berkeley; University of California, Berkeley","University of California, Berkeley",10,37.8754996,-122.2390685,"University of California, Berkeley, Shattuck Avenue, LeConte, Berkeley, Alameda County, California, 94701, United States",NA,NA,NA,"United States of America"
"Uppsala University; Department of Government, Uppsala University; Uppsala Universitet","NA; Uppsala University; Uppsala University","Uppsala University",10,59.8576363,17.6294616,"Uppsala universitet, 3, Biskopsgatan, Främre Luthagen, Fjärdingen, Uppsala, Uppsala kommun, Uppsala län, 753 11, Sverige",NA,NA,NA,"Sweden"
"Central European University; Central European University, DPP; Central European University; HUN REN; Democracy Institute, Central European University","NA; Central European University; Central European University; Central European University","Central European University",9,48.1733737,16.3878467,"Central European University, 51, Quellenstraße, Kreta, KG Favoriten, Favoriten, Wien, 1100, Österreich",NA,NA,NA,"Austria"
"Koc University; Koç University","Koç University; NA","Koç University",9,41.203159,29.0728654,"Koç Üniversitesi, Koç Meydanı, Rumelifeneri Mahallesi, Sarıyer, İstanbul, Marmara Bölgesi, 34450, Türkiye",NA,NA,NA,NA
"Maastricht University","NA","Maastricht University",9,50.8472082,5.68595,"Maastricht University, 4-6, Minderbroedersberg, Kommelkwartier, Maastricht-Centrum, Maastricht, Limburg, Nederland, 6211 LK, Nederland",NA,NA,NA,"Netherlands"
"NYU Abu Dhabi","NA","NYU Abu Dhabi",9,40.7320694,-73.9976431,"NYU Abu Dhabi, 19, Washington Square North, Union Square, Greenwich Village, Manhattan, New York County, City of New York, New York, 10012, United States",NA,NA,NA,NA
"University of Antwerp","NA","University of Antwerp",9,51.2143493,4.4044315,"Antwerp Management School, 5, Boogkeers, Theaterbuurt, Antwerpen, Vlaanderen, 2000, België / Belgique / Belgien",NA,NA,NA,"Belgium"
"University of California, San Diego; GPS @ UC San Diego Copenhagen Business School; School of Global Policy and Strategy, University of California San Diego; UC San Diego; University of California San Diego","NA; University of California, San Diego; University of California, San Diego; University of California, San Diego; University of California, San Diego","University of California, San Diego",9,32.8792438,-117.2311247,"University of California, San Diego, 9500, Gilman Drive, San Diego, San Diego County, California, 92093, United States",NA,NA,NA,"United States of America"
"University of Duisburg-Essen; University Duisburg-Essen","NA; University of Duisburg-Essen","University of Duisburg-Essen",9,51.4641041,7.005847,"Universität Duisburg-Essen, Südviertel, Stadtbezirk I, Essen, Nordrhein-Westfalen, 45128, Deutschland",NA,NA,NA,"Germany"
"University of Essex","NA","University of Essex",9,51.8773639,0.9498751,"University of Essex, Whitehall Road, Whitehall Industrial Estate, Old Heath, Colchester, Essex, England, CO2 8HA, United Kingdom",NA,NA,NA,"United Kingdom"
"University of Lucerne; University of Lucerne; University of Zurich","NA; University of Lucerne","University of Lucerne",9,28.0779639,-82.4433277,"Lucerne Drive, Nowatney, University, Hillsborough County, Florida, 33613, United States",NA,NA,NA,"United States of America"
"University of Stuttgart","NA","University of Stuttgart",9,48.7453828,9.1032675,"Universität Stuttgart, Möhringer Straße, Stuttgart-Süd, Karlshöhe, Stuttgart-Süd, Stuttgart, Baden-Württemberg, 70178, Deutschland",NA,NA,NA,"Germany"
"University of Zürich","NA","University of Zürich",9,47.3737735,8.550955,"Universität Zürich (UZH), Zentrum, Doktor-Faust-Gasse, Hochschulen, Altstadt, Zürich, Bezirk Zürich, Zürich, 8092, Schweiz/Suisse/Svizzera/Svizra",NA,NA,NA,"Switzerland"
"Washington University in St. Louis","NA","Washington University in St. Louis",9,38.6471982,-90.3167316,"Chabad at Washington University in St. Louis, University City, Saint Louis County, Missouri, United States",NA,NA,NA,"United States of America"
"Columbia University","NA","Columbia University",8,40.8077558,-73.9616141,"Columbia University, Claremont Avenue, Manhattan Community Board 9, Manhattan, New York County, City of New York, New York, 10027, United States",NA,NA,NA,"United States of America"
"Cornell University; Cornell University; Governance and Local Development Institute; Cornell University; Governance and Local Development Institute; University of Gothenburg","NA; Cornell University; Cornell University","Cornell University",8,42.4529076,-76.4800842,"Cornell University, City of Ithaca, Town of Dryden, Tompkins County, New York, 14850, United States",NA,NA,NA,"United States of America"
"GESIS - Leibniz Institute for the Social Sciences; GESIS Leibniz Institute for the Social Sciences; GESIS / University of Mannheim; GESIS Cologne; ETH Zurich; GESIS – Leibniz Institute for the Social Sciences; GESIS – Leibniz-Institute for the Social Sciences, Mannheim","NA; GESIS - Leibniz Institute for the Social Sciences; GESIS - Leibniz Institute for the Social Sciences; GESIS - Leibniz Institute for the Social Sciences; GESIS - Leibniz Institute for the Social Sciences; GESIS - Leibniz Institute for the Social Sciences","GESIS - Leibniz Institute for the Social Sciences",8,49.48751,8.45986,"GESIS - Leibniz Institute for the Social Sciences",NA,NA,NA,"Germany"
"Georgetown University","NA","Georgetown University",8,38.9089393,-77.0745796,"Georgetown University, 3700, O Street Northwest, Georgetown, Ward 2, Washington, District of Columbia, 20057, United States",NA,NA,NA,"United States of America"
"University of Edinburgh","NA","University of Edinburgh",8,55.9440764,-3.1883736,"University of Edinburgh, Forrest Road, Abbeyhill, Old Town, City of Edinburgh, Alba / Scotland, EH1 2QN, United Kingdom",NA,NA,NA,"United Kingdom"
"University of Fribourg","NA","University of Fribourg",8,46.7966987,7.1506995,"Hes-so - HEdS-FR - HETS-FR - EF TS - FHF-SA und HfG-FR, Route des Arsenaux, Les Charmettes, Pérolles, Fribourg - Freiburg, District de la Sarine, Fribourg/Freiburg, 1700, Schweiz/Suisse/Svizzera/Svizra",NA,NA,NA,"Switzerland"
"University of Michigan","NA","University of Michigan",8,42.3128147,-83.3744151,"University, Biltmore Manor, Westland, Wayne County, Michigan, 48185, United States",NA,NA,NA,"United States of America"
"University of Pittsburgh","NA","University of Pittsburgh",8,40.444153,-79.962461,"University of Pittsburgh, 4200, Fifth Avenue, Chinatown, Downtown, Pittsburgh, Allegheny County, Pennsylvania, 15260, United States",NA,NA,NA,"United States of America"
"University of Virginia","NA","University of Virginia",8,38.0410576,-78.5055084,"University of Virginia, Jefferson Park Avenue, Charlottesville, Virginia, 22908, United States",NA,NA,NA,"United States of America"
"Université libre de Bruxelles; Vrije Universiteit Brussel","NA; Université libre de Bruxelles","Université libre de Bruxelles",8,50.8134718,4.3812357,"Université libre de Bruxelles (Campus du Solbosch), Avenue de l'Université - Hogeschoollaan, Petite Suisse - Klein-Zwitserland, Ixelles - Elsene, Brussel-Hoofdstad - Bruxelles-Capitale, Région de Bruxelles-Capitale - Brussels Hoofdstedelijk Gewest, 1050, België / Belgique / Belgien",NA,NA,NA,"Belgium"
"Vanderbilt University","NA","Vanderbilt University",8,36.1438011,-86.8028189,"Vanderbilt University, 2201, West End Avenue, Nashville, Davidson County, Middle Tennessee, Tennessee, 37235, United States",NA,NA,NA,"United States of America"
"Aalborg University","NA","Aalborg University",7,57.015907,9.9753082,"Aalborg Universitet, Alfred Nobels Vej, Sønder Tranders, Aalborg, Aalborg Kommune, Region Nordjylland, 9220, Danmark",NA,NA,NA,"Denmark"
"Duke University","NA","Duke University",7,36.0001557,-78.9442297,"Duke University, Exum Street, Burch Avenue, Durham, Durham County, North Carolina, 27708, United States",NA,NA,NA,"United States of America"
"Ghent University","NA","Ghent University",7,51.0078484,3.7108831,"Universiteit Gent Vakgroep Textielkunde, 70A, Technologiepark-Zwijnaarde, Wetenschapspark Ardoyen, Zwijnaarde, Gent, Oost-Vlaanderen, Vlaanderen, 9052, België / Belgique / Belgien",NA,NA,NA,"Belgium"
"Harvard University","NA","Harvard University",7,42.3657432,-71.1222139,"Harvard University, Massachusetts Avenue, Old Cambridge, Cambridge, Middlesex County, Massachusetts, 02318, United States",NA,NA,NA,"United States of America"
"Tel Aviv University","NA","Tel Aviv University",7,32.1123822,34.805018,"אוניברסיטת תל אביב, ד""ר ג'ורג וייז, אוניברסיטת ת""א, תל־אביב–יפו, נפת תל אביב, מחוז תל אביב, 6997801, ישראל",NA,NA,NA,"Israel"
"UCLA; University of California, Los Angeles","University of California, Los Angeles; NA","University of California, Los Angeles",7,34.0708777,-118.4468503,"University of California, Los Angeles, Ambazac Way, Bel Air, Westwood, Los Angeles, Los Angeles County, California, 90095, United States",NA,NA,NA,"United States of America"
"University of Hamburg; University of Hamburg; University of Konstanz; University of Hamburg; WZB Berlin Social Science Center","NA; University of Hamburg; University of Hamburg","University of Hamburg",7,53.5909051,9.9753758,"Universität Hamburg - Institut für Bewegungswissenschaften, Eimsbüttel, Hamburg, 20251, Deutschland",NA,NA,NA,"Germany"
"Barcelona Supercomputing Center; Barcelona Supercomputing Center (BSC); Barcelona Supercomputing Center (BSC); University of Barcelona (UB)","Barcelona Supercomputing Center (BSC); NA; Barcelona Supercomputing Center (BSC)","Barcelona Supercomputing Center (BSC)",6,41.3898395333878,2.11533398108937,"Barcelona Supercomputing Center (BSC)",NA,NA,NA,"Spain"
"Bilkent University","NA","Bilkent University",6,39.870469,32.7539193,"Bilkent Üniversitesi, 3. Cd., Üniversiteler Mahallesi, Çankaya, Ankara, İç Anadolu Bölgesi, 06800, Türkiye",NA,NA,NA,"Turkey"
"Cyprus University of Technology","NA","Cyprus University of Technology",6,34.6763787,33.044583,"Cyprus University of Technology, Athinon, Καθολική, Λεμεσός, Δήμος Λεμεσού, Επαρχία Λεμεσού, Κύπρος, 3036, Κύπρος - Kıbrıs",NA,NA,NA,"Cyprus"
"Technical University of Munich; Technical University of Munich / Hochschule für Politik München","NA; Technical University of Munich","Technical University of Munich",6,48.2654975,11.6692249,"Technische Universität München, Karl-Schwarzschild-Straße, Hochschul- und Forschungszentrum, Garching bei München, Landkreis München, Bayern, 85748, Deutschland",NA,NA,NA,"Germany"
"Universidad Complutense de Madrid; Complutense University of Madrid; Universidad Complutense","NA; Universidad Complutense de Madrid; Universidad Complutense de Madrid","Universidad Complutense de Madrid",6,40.4314742,-3.7900439,"Universidad Complutense de Madrid (Campus de Somosaguas), Carretera de Húmera, Somosaguas Norte, Húmera, Pozuelo de Alarcón, Comunidad de Madrid, 28023, España",NA,NA,NA,"Spain"
"UNIVERSIDAD REY JUAN CARLOS; Universidad Rey Juan Carlos","Universidad Rey Juan Carlos; NA","Universidad Rey Juan Carlos",6,40.3361179,-3.8771203,"Universidad Rey Juan Carlos, Avenida de Ramón de la Sagra, Móstoles Tecnológico, Móstoles, Comunidad de Madrid, 28933, España",NA,NA,NA,"Spain"
"University of Bath","NA","University of Bath",6,51.3766938,-2.3234206,"University of Bath, Limekiln Lane, Claverton Down, Bath, Bath and North East Somerset, West of England, England, BA2 7PW, United Kingdom",NA,NA,NA,"United Kingdom"
"University of Göttingen","NA","University of Göttingen",6,51.5307523,9.945469,"SOFI, 31, Friedländer Weg, Beethovenstraße, Oststadt, Göttingen, Landkreis Göttingen, Niedersachsen, 37085, Deutschland",NA,NA,NA,"Germany"
"University of Iowa","NA","University of Iowa",6,41.6683126,-91.5795267,"The University of Iowa, Woodside Drive, Lakewood, Iowa City, Johnson County, Iowa, 52246, United States",NA,NA,NA,"United States of America"
"IAST, Toulouse School of Economics; IAST-TSE; Institute for Advanced Study in Toulouse; Institute for Advanced Study in Toulouse (IAST) and Toulouse School of Economics (TSE); Institute for Advanced Study in Toulouse, Toulouse School of Economics","IAST; IAST; IAST; IAST; IAST","IAST",5,39.9513286,-75.1920995,"Roy and Diana Vagelos Laboratories of the IAST, 3340, Smith Walk, University City, West Philadelphia, Philadelphia, Philadelphia County, Pennsylvania, 19104, United States",NA,NA,NA,"United States of America"
"Lund University","NA","Lund University",5,55.7126504,13.2107587,"Lunds Tekniska Högskola, Box 118, John Ericssons väg, Norra universitetsområdet, Norr, Lund, Lunds kommun, Skåne län, 221 00, Sverige",NA,NA,NA,"Sweden"
"The Hebrew University of Jerusalem","NA","The Hebrew University of Jerusalem",5,31.7943571876016,35.2426830904383,"The Hebrew University of Jerusalem",NA,NA,NA,"Palestine"
"Trinity College Dublin","NA","Trinity College Dublin",5,53.3436671,-6.2544366,"Trinity College Dublin, College Green, Mansion House A Ward 1986, Dublin, County Dublin, Leinster, D02 VR66, Éire / Ireland",NA,NA,NA,"Ireland"
"University of Bologna","NA","University of Bologna",5,44.4982886,11.354457,"Università di Bologna, Via Irnerio, Irnerio, Santo Stefano, Bologna, Emilia-Romagna, 40126, Italia",NA,NA,NA,"Italy"
"University of Florence","NA","University of Florence",5,43.778893,11.2600403,"Biblioteca della Gonzaga university in Florence, Via della Dogana, Quartiere 1, Firenze, Toscana, 50120, Italia",NA,NA,NA,"Italy"
"University of Florida","NA","University of Florida",5,28.597661,-81.2158247,"University, Orange County, Florida, United States",NA,NA,NA,"United States of America"
"University of Innsbruck","NA","University of Innsbruck",5,47.2633159,11.3844733,"Universität Innsbruck - Campus Innrain, Innerkoflerstraße, Innenstadt, Innsbruck, Tirol, 6020, Österreich",NA,NA,NA,"Austria"
"University of Missouri; SAP SE; University of Missouri","NA; University of Missouri","University of Missouri",5,38.9364147,-92.329703,"University of Missouri, Columbia, Columbia Township, Boone County, Missouri, 65211, United States",NA,NA,NA,"United States of America"
"University of Nottingham","NA","University of Nottingham",5,52.9387428,-1.2002957,"University of Nottingham, University Boulevard, Dunkirk, City of Nottingham, East Midlands, England, NG7 2RD, United Kingdom",NA,NA,NA,"United Kingdom"
"University of Pennsylvania","NA","University of Pennsylvania",5,39.9503945,-75.1946713,"University of Pennsylvania, Washington Avenue, Schuylkill, South Philadelphia, Philadelphia, Philadelphia County, Pennsylvania, 19104, United States",NA,NA,NA,"United States of America"
"University of Reading","NA","University of Reading",5,51.4402496,-0.9484891,"Reading University, Chancellor's Way, Whitley, Reading, England, RG6 6DF, United Kingdom",NA,NA,NA,"United Kingdom"
"University of St Andrews","NA","University of St Andrews",5,56.3398198,-2.8117937,"University of St Andrews, North Street, St Andrews, Fife, Alba / Scotland, KY16 9AJ, United Kingdom",NA,NA,NA,"United Kingdom"
"Université de Montréal; Université de Montréal; Sciences Po","NA; Université de Montréal","Université de Montréal",5,45.5047577,-73.6145418,"Université de Montréal, 2900, Boulevard Édouard-Montpetit, Côte-des-Neiges, Côte-des-Neiges–Notre-Dame-de-Grâce, Montréal, Agglomération de Montréal, Montréal (région administrative), Québec, H3T 1J4, Canada",NA,NA,NA,"Canada"
"Zeppelin University, Friedrichshafen; Zeppelin University; Zeppelin University, Friedrichshafen; LMU, Munich","NA; Zeppelin University, Friedrichshafen; Zeppelin University, Friedrichshafen","Zeppelin University, Friedrichshafen",5,47.6596567226953,9.43262480437653,"Zeppelin University, Friedrichshafen",NA,NA,NA,"Germany"
"Brigham Young University","NA","Brigham Young University",4,40.2554083,-111.6496832,"Brigham Young University, Provo River Parkway, Riverside, Pleasant View, Provo, Utah County, Utah, 84602, United States",NA,NA,NA,"United States of America"
"Bundeswehr University; Center for Crisis Early Warning, University of the Bundeswehr Munich","NA; Bundeswehr University","Bundeswehr University",4,48.0766312,11.6359736,"Universität der Bundeswehr München, Römerfeld, Vivamus Park, Unterbiberg, Neubiberg, Landkreis München, Bayern, 85579, Deutschland",NA,NA,NA,"Germany"
"CUNEF Universidad; CUNEF; CUNEF Universidad; Ministerio de Economía, Comercio y Empresa","CUNEF; NA; CUNEF","CUNEF",4,NA,NA,NA,NA,NA,NA,NA
"Catholic University of Milan; Catholic University of Milan and CLEAN; Cattolica University; Cattolica University Milan","Catholic University of Milan; Catholic University of Milan; Catholic University of Milan; Catholic University of Milan","Catholic University of Milan",4,NA,NA,NA,NA,NA,NA,NA
"Department of Social, Political and Cognitive Sciences, University of Siena","NA","Department of Social, Political and Cognitive Sciences, University of Siena",4,NA,NA,NA,NA,NA,NA,NA
"Doha Institute for Graduate Studies","NA","Doha Institute for Graduate Studies",4,NA,NA,NA,NA,NA,NA,NA
"EAFIT University","NA","EAFIT University",4,6.2002021,-75.5784855,"Universidad EAFIT, 7 sur - 50, Carrera 49, La Aguacatala, Comuna 14 - El Poblado, Perímetro Urbano Medellín, Medellín, Valle de Aburrá, Antioquia, RAP del Agua y la Montaña, 050001, Colombia",NA,NA,NA,"Colombia"
"ITAM","NA","ITAM",4,19.3451429,-99.1998346,"Instituto Tecnológico Autónomo de México, 1, Calle Río Hondo, Batán Barrio Viejo, Ciudad de México, Álvaro Obregón, Ciudad de México, 01080, México",NA,NA,NA,"Mexico"
"Northwestern University","NA","Northwestern University",4,42.0557157,-87.6752945,"Northwestern University, 633, Clark Street, Downtown, Evanston, Evanston Township, Cook County, Illinois, 60208, United States",NA,NA,NA,"United States of America"
"Norwegian Business School","NA","Norwegian Business School",4,NA,NA,NA,NA,NA,NA,NA
"Queen Mary University of London","NA","Queen Mary University of London",4,51.5247403,-0.0393136,"Queen Mary University of London, 327, Mile End Road, Mile End, London Borough of Tower Hamlets, London, Greater London, England, E1 4NS, United Kingdom",NA,NA,NA,"United Kingdom"
"Radboud University","NA","Radboud University",4,51.8215172,5.8634209,"Radboud Universiteit, Kwekerijweg, Heijendaal, Nijmegen-Midden, Nijmegen, Gelderland, Nederland, 6525 RZ, Nederland",NA,NA,NA,"Netherlands"
"Universidad Autónoma de Madrid","NA","Universidad Autónoma de Madrid",4,40.5453765,-3.6949578,"Universidad Autónoma de Madrid (U.A.M.) Campus de Cantoblanco, Avenida de Francisco Tomás y Valiente, El Goloso, Fuencarral-El Pardo, Madrid, Comunidad de Madrid, 28049, España",NA,NA,NA,"Spain"
"Universidad Pablo de Olavide; Universidad Pablo de Olavide (Sevilla, España)","NA; Universidad Pablo de Olavide","Universidad Pablo de Olavide",4,37.3560809,-5.9381678,"Universidad Pablo de Olavide, Calle Juan Díaz de Solís, Condequinto, Dos Hermanas, Sevilla, Andalucía, 41089, España",NA,NA,NA,"Spain"
"University of California, Davis","NA","University of California, Davis",4,38.5337904,-121.7907544,"University of California, Davis, 1, Russell Boulevard, Davis, Yolo County, California, 95616, United States",NA,NA,NA,"United States of America"
"University of Cyprus","NA","University of Cyprus",4,35.1434031,33.4140514,"Πανεπιστήμιο Κύπρου, Lefkadas, Sopaz, Panayia, Λευκωσία, Λευκωσία - Lefkoşa, Δήμος Λευκωσίας, Επαρχία Λευκωσίας, Κύπρος, 1646, Κύπρος - Kıbrıs",NA,NA,NA,"Cyprus"
"University of Genoa; Department of Political and International Sciences, University of Genoa","NA; University of Genoa","University of Genoa",4,44.4148861,8.9266707,"Università degli Studi di Genova, Via Balbi, Prè, Centro Est, Genova, Liguria, 16126, Italia",NA,NA,NA,"Italy"
"Department of International Relations and International Organizations, University of Groningen; University of Groningen","University of Groningen; NA","University of Groningen",4,53.2194415,6.5629863,"Rijksuniversiteit Groningen, Pausgang, Bisschopskwartier, Binnenstad, Centrum, Groningen, Nederland, 9712 EZ, Nederland",NA,NA,NA,"Netherlands"
"University of Hannover","NA","University of Hannover",4,52.4256466,9.6193803,"Campus Maschinenbau der Leibniz Universität Hannover, Heinz-Haferkamp-Straße, Garbsen-Mitte, Ortschaft Garbsen, Garbsen, Region Hannover, Niedersachsen, 30823, Deutschland",NA,NA,NA,"Germany"
"University of Houston","NA","University of Houston",4,29.7207902,-95.3440627,"University of Houston, 4800, Calhoun Road, University Oaks, Houston, Harris County, Texas, 77004, United States",NA,NA,NA,"United States of America"
"University of Liverpool","NA","University of Liverpool",4,53.4072429,-2.9658337,"University of Liverpool, Daulby Street, Knowledge Quarter, Edge Hill, Liverpool, Liverpool City Region, England, L7 8XZ, United Kingdom",NA,NA,NA,"United Kingdom"
"University of Southern Denmark","NA","University of Southern Denmark",4,55.3678532,10.4280534,"Syddansk Universitet, Moseskovvej, Cortex Park, Odense, Odense Kommune, 5220, Danmark",NA,NA,NA,"Denmark"
"University of Texas at Austin","NA","University of Texas at Austin",4,30.2851494,-97.7339352,"University of Texas at Austin, 1, Allandale, Austin, Travis County, Texas, 78712, United States",NA,NA,NA,"United States of America"
"University of Warwick","NA","University of Warwick",4,52.2709725,-1.5415008,"Warwick University, Delphi Close, Warwick Gates, Warwick, Warwickshire, England, CV34 6RR, United Kingdom",NA,NA,NA,"United Kingdom"
"University of Wisconsin-Madison","NA","University of Wisconsin-Madison",4,43.0802745,-89.4309587,"University of Wisconsin-Madison, Du Rose Terrace, Rocky Bluff, Madison, Dane County, Wisconsin, 53705, United States",NA,NA,NA,"United States of America"
"University of York; Department of Politics and International Relations, University of York, UK","NA; University of York","University of York",4,43.7739325,-79.4988225,"York University, 120, Ian Macdonald Boulevard, York University Heights, Humber River—Black Creek, North York, Toronto, Golden Horseshoe, Ontario, M7A 2C5, Canada",NA,NA,NA,"Canada"
"Vienna University of Economics and Business (WU)","NA","Vienna University of Economics and Business (WU)",4,48.2138034,16.4081745,"Wirtschaftsuniversität Wien, 1, Welthandelsplatz, KG Leopoldstadt, Leopoldstadt, Wien, 1020, Österreich",NA,NA,NA,"Austria"
"Department of Philosophy, Politics & Economics, Witten/Herdecke University, Germany; University Witten/Herdecke; Witten/Herdecke University","Witten/Herdecke University; Witten/Herdecke University; NA","Witten/Herdecke University",4,51.4521881,7.3571148,"Universität Witten/Herdecke, 50, Alfred-Herrhausen-Straße, Wullen, Annen, Witten, Ennepe-Ruhr-Kreis, Nordrhein-Westfalen, 58455, Deutschland",NA,NA,NA,"Germany"
"Zürich University of Applied Sciences","NA","Zürich University of Applied Sciences",4,47.4968435,8.7298072,"Zürcher Hochschule für Angewandte Wissenschaften, Turmhaldenstrasse, Heiligberg, Stadt, Winterthur, Bezirk Winterthur, Zürich, 8403, Schweiz/Suisse/Svizzera/Svizra",NA,NA,NA,"Switzerland"
"Aalto University","NA","Aalto University",3,60.1860789,24.8281018,"Aalto-yliopisto, 24, Otakaari, Teekkarikylä, Otaniemi, Suur-Tapiola, Espoo, Helsingin seutukunta, Uusimaa, Manner-Suomi, 02150, Suomi / Finland",NA,NA,NA,"Finland"
"American University","NA","American University",3,38.9377511,-77.0894676,"American University, 4400, Massachusetts Avenue Northwest, City Ridge, Cathedral Heights, Ward 3, Washington, District of Columbia, 20016, United States",NA,NA,NA,"United States of America"
"BI Norwegian Business School","NA","BI Norwegian Business School",3,NA,NA,NA,NA,NA,NA,NA
"Birkbeck, University of London","NA","Birkbeck, University of London",3,NA,NA,NA,NA,NA,NA,NA
"Centre Marc Bloch","NA","Centre Marc Bloch",3,NA,NA,NA,NA,NA,NA,NA
"Collegio Carlo Alberto","NA","Collegio Carlo Alberto",3,44.9998325,7.6847025,"Collegio Carlo Alberto, 30, Via Real Collegio, Moncalieri, Torino, Piemonte, 10024, Italia",NA,NA,NA,"Italy"
"Department of Social Political and Cognitive Sciences, University of Siena","NA","Department of Social Political and Cognitive Sciences, University of Siena",3,NA,NA,NA,NA,NA,NA,NA
"Durham University","NA","Durham University",3,54.7641281,-1.5863066,"Durham Business School, Mill Hill Lane, Merryoaks, City of Durham, Durham, County Durham, North East, England, DH1 3LB, United Kingdom",NA,NA,NA,"United Kingdom"
"ESPOL Doctoral Student; ESPOL Professor; ESPOL-LAB, Université Catholique de Lille","ESPOL; ESPOL; ESPOL","ESPOL",3,-2.147712,-79.9647289,"ESCUELA SUPERIOR POLITECNICA DEL LITORAL, Perimetro del Campus Espol, Guayaquil, Guayas, 090150, Ecuador",NA,NA,NA,"Ecuador"
"Erasmus University Rotterdam","NA","Erasmus University Rotterdam",3,51.9176312,4.5259623,"Erasmus Universiteit Rotterdam, 50, Burgemeester Oudlaan, Kralingen-Oost, Rotterdam, Zuid-Holland, Nederland, 3062 PA, Nederland",NA,NA,NA,"Netherlands"
"European University Viadrina; European University Viadrina Frankfurt (Oder)","European University Viadrina; European University Viadrina","European University Viadrina",3,52.3421778154161,14.553913656578,"European University Viadrina",NA,NA,NA,"Germany"
"Florida State University","NA","Florida State University",3,30.442216,-84.297453,"Florida State University, 600, West College Avenue, College Town, Tallahassee, Leon County, Florida, 32306, United States",NA,NA,NA,"United States of America"
"Getulio Vargas Foundation","NA","Getulio Vargas Foundation",3,NA,NA,NA,NA,NA,NA,NA
"Harvard Business School","NA","Harvard Business School",3,42.3659617,-71.1215064,"Harvard Business School, Albert H. Gordon Road, Barry's Corner, Allston, Boston, Suffolk County, Massachusetts, 02163, United States",NA,NA,NA,"United States of America"
"Hebrew University of Jerusalem","NA","Hebrew University of Jerusalem",3,31.7918555,35.244723,"האוניברסיטה העברית בירושלים, Reagan Plaza, הר הצופים, ירושלים | القدس, נפת ירושלים, מחוז ירושלים, 9711769, ישראל",NA,NA,NA,"Palestine"
"Hobby School of Public Affairs, University of Houston","NA","Hobby School of Public Affairs, University of Houston",3,NA,NA,NA,NA,NA,NA,NA
"Hong Kong University of Science and Technology","NA","Hong Kong University of Science and Technology",3,22.3358031,114.2659088,"香港科技大學 The Hong Kong University of Science and Technology, 大學道 University Road, 碧水新村 Pik Shui San Tsuen, 大埔仔 Tai Po Tsai, 西貢區 Sai Kung District, 新界 New Territories, 香港 Hong Kong, 中国",NA,NA,NA,"Hong Kong"
"Institute of Political Science, Academia Sinica","NA","Institute of Political Science, Academia Sinica",3,NA,NA,NA,NA,NA,NA,NA
"Institute of Social Sciences, University of Lisbon","NA","Institute of Social Sciences, University of Lisbon",3,NA,NA,NA,NA,NA,NA,NA
"JM","NA","JM",3,-19.8358432,-43.1678773,"Instituto de Ciências Exatas e Aplicadas (ICEA) - UFOP Campus JM, 115, Rua Trinta e Seis, Vera Cruz, João Monlevade, Região Geográfica Imediata de João Monlevade, Região Geográfica Intermediária de Ipatinga, Minas Gerais, Região Sudeste, 35931-017, Brasil",NA,NA,NA,"Brazil"
"KU Leuven","NA","KU Leuven",3,50.8057128,3.2915374,"KU Leuven Kulak, Etienne Sabbelaan, Kortrijk, West-Vlaanderen, 8500, België / Belgique / Belgien",NA,NA,NA,"Belgium"
"Leuphana University Lüneburg","NA","Leuphana University Lüneburg",3,53.2287819,10.4014752,"Leuphana Universität Lüneburg, 1, Universitätsallee, Bockelsberg, Lüneburg, Niedersachsen, 21335, Deutschland",NA,NA,NA,"Germany"
"Matej Bel University","NA","Matej Bel University",3,NA,NA,NA,NA,NA,NA,NA
"Michigan State University","NA","Michigan State University",3,42.7023794,-84.4803869,"Michigan State University, 426, Auditorium Road, River Trail Neighborhood, East Lansing, Ingham County, Michigan, 48824, United States",NA,NA,NA,"United States of America"
"Philipps-Universität Marburg","NA","Philipps-Universität Marburg",3,50.8124763,8.7722345,"Philipps-Universität Marburg - Campus Firmanei, 10, Biegenstraße, Biegenviertel, Campusviertel, Marburg, Landkreis Marburg-Biedenkopf, Hessen, 35037, Deutschland",NA,NA,NA,"Germany"
"Purdue University; Purdue University; Northwestern University","NA; Purdue University","Purdue University",3,40.430028,-86.9264211,"Purdue University, 610, West Lafayette, Tippecanoe County, Indiana, 47907, United States",NA,NA,NA,"United States of America"
"Radboud University Nijmegen","NA","Radboud University Nijmegen",3,51.8215172,5.8634209,"Radboud Universiteit, Kwekerijweg, Heijendaal, Nijmegen-Midden, Nijmegen, Gelderland, Nederland, 6525 RZ, Nederland",NA,NA,NA,"Netherlands"
"Royal Holloway; Royal Holloway University, London; Royal Holloway University, London; HUN-REN CERS","NA; Royal Holloway; Royal Holloway","Royal Holloway",3,51.4244496,-0.5642561,"Royal Holloway, South Road, Englefield Green, Runnymede, Surrey, England, TW20 0RL, United Kingdom",NA,NA,NA,"United Kingdom"
"Royal Holloway University of London","NA","Royal Holloway University of London",3,51.4244496,-0.5642561,"Royal Holloway, South Road, Englefield Green, Runnymede, Surrey, England, TW20 0RL, United Kingdom",NA,NA,NA,"United Kingdom"
"Századvég Foundation, Budapest, Hungary; Századvég Foundation, Budapest, Hungary; HUN-REN Centre for Social Sciences, Budapest, Hungary; Institute for Quantitative Social Sciences, Harvard University; Századvég Foundation, Budapest, Hungary; Pázmány Péter Catholic University, Budapest, Hungary; Budapest Metropolitan University, Budapest, Hungary; University of Pécs - Applied Ontology Research Group, Pécs, Hungary","NA; Századvég Foundation, Budapest, Hungary; Századvég Foundation, Budapest, Hungary","Századvég Foundation, Budapest, Hungary",3,NA,NA,NA,NA,NA,NA,NA
"Texas A&M University","NA","Texas A&M University",3,35.5934765,-105.7659817,"Texas A, Oak Road, Glorieta Camps, Glorieta, Santa Fe County, New Mexico, 87535, United States",NA,NA,NA,"United States of America"
"The Carter Center","NA","The Carter Center",3,0.3235913,32.5746225,"The Carter Center, Buganda Road, Bat Valley, Central, Kampala Capital City, Kampala, Central Region, Uganda",NA,NA,NA,"Uganda"
"Tulane University","NA","Tulane University",3,29.9412195,-90.1201009,"Tulane University, 6823, Saint Charles Avenue, Black Pearl, Greenville, New Orleans, Orleans Parish, Louisiana, 70118, United States",NA,NA,NA,"United States of America"
"UC Davis","NA","UC Davis",3,38.5337904,-121.7907544,"University of California, Davis, 1, Russell Boulevard, Davis, Yolo County, California, 95616, United States",NA,NA,NA,"United States of America"
"UNC Charlotte","NA","UNC Charlotte",3,35.3064945,-80.7349705,"The University of North Carolina at Charlotte, 9201, University City Boulevard, University City, Charlotte, Mecklenburg County, North Carolina, 28223, United States",NA,NA,NA,"United States of America"
"Universidade de Santiago de Compostela","NA","Universidade de Santiago de Compostela",3,42.876257,-8.5535986,"Servizo de Normalización Lingüística da Universidade de Santiago de Compostela, Avenida das Ciencias, San Lourenzo, O Ensanche, Santiago de Compostela, Santiago, A Coruña, Galicia, 15782, España",NA,NA,NA,"Spain"
"University of Burgos","NA","University of Burgos",3,42.3413549,-3.7283532,"Universidad de Burgos - Servicios Centrales, Calle Rollo, Hospital del Rey, Distrito Oeste, Burgos, Castilla y León, 09001, España",NA,NA,NA,"Spain"
"Department of Political Science, UC Santa Barbara, USA; University of California in Santa Barbara","University of California in Santa Barbara; NA","University of California in Santa Barbara",3,NA,NA,NA,NA,NA,NA,NA
"University of California, Merced","NA","University of California, Merced",3,37.365182,-120.4225275,"University of California, Merced, 5200, Shaver Lake Road, Merced, Merced County, California, 95343, United States",NA,NA,NA,"United States of America"
"University of Colorado Boulder; University of Colorado Boulder; Universidad Carlos III de Madrid–IC; University of Colorado, Boulder","NA; University of Colorado Boulder; University of Colorado Boulder","University of Colorado Boulder",3,40.0069373,-105.2663866,"University of Colorado Boulder (Main Campus), Boulder Creek Path, The Hill, Boulder, Boulder County, Colorado, 80309, United States",NA,NA,NA,"United States of America"
"University of Exeter","NA","University of Exeter",3,50.1701604,-5.1241802,"University of Exeter, Quethiock, Cornwall, England, TR10 9EZ, United Kingdom",NA,NA,NA,"United Kingdom"
"University of Marburg","NA","University of Marburg",3,50.8124763,8.7722345,"Philipps-Universität Marburg - Campus Firmanei, 10, Biegenstraße, Biegenviertel, Campusviertel, Marburg, Landkreis Marburg-Biedenkopf, Hessen, 35037, Deutschland",NA,NA,NA,"Germany"
"University of Murcia","NA","University of Murcia",3,37.9912577,-1.1852019,"UCAM - Universidad Católica San Antonio de Murcia, Costera Norte, El Portón de los Jerónimos, Los Jeronimos, Guadalupe, Murcia, Área Metropolitana de Murcia, Región de Murcia, 30107, España",NA,NA,NA,"Spain"
"University of Notre Dame","NA","University of Notre Dame",3,7.2153932,124.2503707,"Notre Dame University, Don Cesar Street, Poblacion 4, Poblacion, Cotabato City, Bangsamoro, 9600, Philippines",NA,NA,NA,"Philippines"
"University of Oviedo","NA","University of Oviedo",3,43.3580268,-5.8542279,"Universidad de Oviedo - Campus de Llamaquique, Calle Aniceto Sela, Llamaquique, Centro y casco histórico, Oviedo, Asturias / Asturies, 33071, España",NA,NA,NA,"Spain"
"University of Turku","NA","University of Turku",3,60.4560731,22.2864097,"Turun yliopisto, Yliopistonmäki, I, Keskusta, Turku, Turun seutukunta, Varsinais-Suomi, Manner-Suomi, 20500, Suomi / Finland",NA,NA,NA,"Finland"
"University of Verona","NA","University of Verona",3,45.4363394,11.0030301,"Università degli Studi di Verona, Viale Università, Veronetta, Centro Storico, Verona, Veneto, 37129, Italia",NA,NA,NA,"Italy"
"Utrecht University","NA","Utrecht University",3,52.0832758,5.1478185,"University College Utrecht, 1, Campusplein, Galgenwaard E.o., Wilhelminapark, Rijnsweerd, Oost, Utrecht, Nederland, 3584 ED, Nederland",NA,NA,NA,"Netherlands"
"Vienna University of Economics and Business","NA","Vienna University of Economics and Business",3,48.2138034,16.4081745,"Wirtschaftsuniversität Wien, 1, Welthandelsplatz, KG Leopoldstadt, Leopoldstadt, Wien, 1020, Österreich",NA,NA,NA,"Austria"
"VU Amsterdam; Vrije Universiteit Amsterdam; Vrije Universitiet Amsterdam","Vrije Universiteit Amsterdam; Vrije Universiteit Amsterdam; Vrije Universiteit Amsterdam","Vrije Universiteit Amsterdam",3,52.3340539,4.8651882,"Vrije Universiteit Amsterdam, 1105, De Boelelaan, VU-kwartier, Zuidas, Zuid, Amsterdam, Noord-Holland, Nederland, 1081 HV, Nederland",NA,NA,NA,"Netherlands"
"Washington University in St Louis","NA","Washington University in St Louis",3,38.6471982,-90.3167316,"Chabad at Washington University in St. Louis, University City, Saint Louis County, Missouri, United States",NA,NA,NA,"United States of America"
"World Bank","NA","World Bank",3,0.3166317,32.5795715,"World Bank - Uganda Country Office, 1, Lumumba Avenue, Bat Valley, Central, Kampala Capital City, Kampala, Central Region, Uganda",NA,NA,NA,"Uganda"
"Åbo Akademi University, Finland","NA","Åbo Akademi University, Finland",3,60.4534537,22.2794289,"Åbo Akademi, Kasarminkatu, Kasarmialue, I, Keskusta, Turku, Turun seutukunta, Varsinais-Suomi, Manner-Suomi, 20500, Suomi / Finland",NA,NA,NA,"Finland"
"Arizona State University","NA","Arizona State University",2,33.4213174,-111.9331631,"Arizona State University, 1151, South Forest Avenue, Tempe Junction, Tempe, Maricopa County, Arizona, 85281, United States",NA,NA,NA,"United States of America"
"Assistant Professor","NA","Assistant Professor",2,NA,NA,NA,NA,NA,NA,NA
"Australian National University","NA","Australian National University",2,-35.2812742,149.1172023,"Australian National University, Edinburgh Avenue, City, Canberra, District of Canberra Central, Australian Capital Territory, 2601, Australia",NA,NA,NA,"Australia"
"Brown University","NA","Brown University",2,41.8186395,-71.4088009,"Brown University, Richmond Street, Downtown, Providence, Providence County, Rhode Island, 02912, United States",NA,NA,NA,"United States of America"
"CSIC","NA","CSIC",2,NA,NA,NA,NA,NA,NA,NA
"California Institute of Technology","NA","California Institute of Technology",2,34.1370138,-118.1252883,"California Institute of Technology, East California Boulevard, Pasadena, Los Angeles County, California, 91125, United States",NA,NA,NA,"United States of America"
"Cardiff University","NA","Cardiff University",2,51.4887426,-3.1795999,"Cardiff University, Park Place, Civic Centre, Castle, Cardiff, Cymru / Wales, CF10 3AT, United Kingdom",NA,NA,NA,"United Kingdom"
"Centre Estudis Opinio; Centre d'Estudis d'Opinió","Centre d'Estudis d'Opinió; NA","Centre d'Estudis d'Opinió",2,NA,NA,NA,NA,NA,NA,NA
"Centre for the Politics of Feelings, SAS University of London; Department of Psychology, Royal Holloway University of London","NA","Centre for the Politics of Feelings, SAS University of London; Department of Psychology, Royal Holloway University of London",2,NA,NA,NA,NA,NA,NA,NA
"Claremont Graduate University","NA","Claremont Graduate University",2,34.1103852,-117.7175884,"Claremont Graduate University, Via Zurita, Claremont, Los Angeles County, California, 91711, United States",NA,NA,NA,"United States of America"
"Clemson University","NA","Clemson University",2,34.6686915,-82.8374348,"Clemson University, Purple Court, Tiger Towne Village, Clemson, Pickens County, South Carolina, 29634, United States",NA,NA,NA,"United States of America"
"Colorado State University","NA","Colorado State University",2,40.5706567,-105.0853995,"Colorado State University, Spring Creek Trail, Lexington Green, Fort Collins, Larimer County, Colorado, 80526, United States",NA,NA,NA,"United States of America"
"Concordia University","NA","Concordia University",2,45.495244,-73.5785815,"Concordia University (SGW Campus), Rue Saint-Marc, Ville-Marie, Montréal, Agglomération de Montréal, Montréal (région administrative), Québec, H3H 2G4, Canada",NA,NA,NA,"Canada"
"Czech Academy of Sciences","NA","Czech Academy of Sciences",2,NA,NA,NA,NA,NA,NA,NA
"Dartmouth College","NA","Dartmouth College",2,43.7046756,-72.2942089,"Dartmouth College, I 91, Pompanoosuc, Norwich, Windsor County, Vermont, 03755, United States",NA,NA,NA,"United States of America"
"Department of Political and Social Sciences, European University Institute","NA","Department of Political and Social Sciences, European University Institute",2,NA,NA,NA,NA,NA,NA,NA
"ETH Zürich, Switzerland","NA","ETH Zürich, Switzerland",2,NA,NA,NA,NA,NA,NA,NA
"ETH Züruich","NA","ETH Züruich",2,NA,NA,NA,NA,NA,NA,NA
"European University Institute; Potsdam University","NA","European University Institute; Potsdam University",2,NA,NA,NA,NA,NA,NA,NA
"Free University of Berlin","NA","Free University of Berlin",2,NA,NA,NA,NA,NA,NA,NA
"Geneva Graduate Institute Department of International Relations and Political Science","NA","Geneva Graduate Institute Department of International Relations and Political Science",2,NA,NA,NA,NA,NA,NA,NA
"German Institute of Development Sustainability (IDOS)","NA","German Institute of Development Sustainability (IDOS)",2,NA,NA,NA,NA,NA,NA,NA
"German Institute of Development and Sustainability (IDOS)","NA","German Institute of Development and Sustainability (IDOS)",2,NA,NA,NA,NA,NA,NA,NA
"German Socio-Economic Panel Study, DIW Berlin","NA","German Socio-Economic Panel Study, DIW Berlin",2,NA,NA,NA,NA,NA,NA,NA
"Ghent University; United Nations University Institute on Comparative Regional Integration Studies (UNU-CRIS)","NA","Ghent University; United Nations University Institute on Comparative Regional Integration Studies (UNU-CRIS)",2,NA,NA,NA,NA,NA,NA,NA
"HUN REN","NA","HUN REN",2,NA,NA,NA,NA,NA,NA,NA
"Harvard Kennedy School","NA","Harvard Kennedy School",2,NA,NA,NA,NA,NA,NA,NA
"Institute of Political Science, Heidelberg University, Germany; Ruprecht-Karls-Universität Heidelberg; WZB Berlin Social Science Center","Heidelberg University; Heidelberg University","Heidelberg University",2,49.4186002,8.6692402,"Universität Heidelberg, Uferstraße, Neuenheim, Heidelberg, Baden-Württemberg, 69120, Deutschland",NA,NA,NA,"Germany"
"Hochschule für Politik / Technical University of Munich","NA","Hochschule für Politik / Technical University of Munich",2,NA,NA,NA,NA,NA,NA,NA
"IE University, Department of Political Science and International Relations","NA","IE University, Department of Political Science and International Relations",2,NA,NA,NA,NA,NA,NA,NA
"Indian Institute of Technology Kanpur","NA","Indian Institute of Technology Kanpur",2,26.513188,80.2364843,"Indian Institute of Technology Kanpur, Lane 11, Kanpur, Kanpur Nagar, Uttar Pradesh, 208016, India",NA,NA,NA,"India"
"Institut Barcelona d'Estudis Internacionals (IBEI)","NA","Institut Barcelona d'Estudis Internacionals (IBEI)",2,NA,NA,NA,NA,NA,NA,NA
"Institute for Public Goods and Policies (CSIC)","NA","Institute for Public Goods and Policies (CSIC)",2,NA,NA,NA,NA,NA,NA,NA
"Institute of Political Science, University of Bern","NA","Institute of Political Science, University of Bern",2,NA,NA,NA,NA,NA,NA,NA
"Johns Hopkins University","NA","Johns Hopkins University",2,39.3302022,-76.6218536,"Johns Hopkins University, 3400, North Charles Street, Charles Village, Baltimore, Maryland, 21218, United States",NA,NA,NA,"United States of America"
"Kristianstad University","NA","Kristianstad University",2,56.0481822,14.1457312,"Högskolan Kristianstad, Kanslivägen, Näsby, Kristianstad, Kristianstads kommun, Skåne län, 291 88, Sverige",NA,NA,NA,"Sweden"
"LUISS University","NA","LUISS University",2,41.9215052,12.5132907,"LUISS, Via Parenzo, Trieste, Municipio Roma II, Roma, Roma Capitale, Lazio, 00199, Italia",NA,NA,NA,"Italy"
"Louisiana State University","NA","Louisiana State University",2,30.4062005,-91.1854129,"Louisiana State University, Iowa Street, University Terrace, Baton Rouge, East Baton Rouge Parish, Louisiana, 70803, United States",NA,NA,NA,"United States of America"
"Ludwig Maximilian University of Munich","NA","Ludwig Maximilian University of Munich",2,NA,NA,NA,NA,NA,NA,NA
"Ludwig Maximilians University of Munich","NA","Ludwig Maximilians University of Munich",2,48.1521649,11.581535,"Institut für Statistik der LMU, 33, Ludwigstraße, Universität, Maxvorstadt, München, Bayern, 80539, Deutschland",NA,NA,NA,"Germany"
"Masaryk University, Brno","NA","Masaryk University, Brno",2,NA,NA,NA,NA,NA,NA,NA
"Munich School of Politics and Public Policy, Technical University of Munich (TUM)","NA","Munich School of Politics and Public Policy, Technical University of Munich (TUM)",2,NA,NA,NA,NA,NA,NA,NA
"Norwegian Research Centre (NORCE)","NA","Norwegian Research Centre (NORCE)",2,NA,NA,NA,NA,NA,NA,NA
"Norwegian University of Science and Technology","NA","Norwegian University of Science and Technology",2,63.4480238,10.4536394,"NTNU Ringve botaniske hage, Fagerheim allé, Østmarkneset, Hasselbakken, Østbyen, Trondheim, Trøndelag, 7041, Norge",NA,NA,NA,"Norway"
"Osnabrueck University","NA","Osnabrueck University",2,52.2709366,8.0457026,"Universität Osnabrück - Standort Innenstadt, Arndtplatz, Vordere Wüste, Wüste, Osnabrück, Niedersachsen, 49080, Deutschland",NA,NA,NA,"Germany"
"Otto Suhr Institute of Political Science, Freie Universität Berlin","NA","Otto Suhr Institute of Political Science, Freie Universität Berlin",2,NA,NA,NA,NA,NA,NA,NA
"Palacký University Olomouc","NA","Palacký University Olomouc",2,NA,NA,NA,NA,NA,NA,NA
"Peace Research Institute Oslo","NA","Peace Research Institute Oslo",2,NA,NA,NA,NA,NA,NA,NA
"Penn State","NA","Penn State",2,40.8025835,-77.8559383,"Penn State University, West Cherry Lane, Krumrine, Ferguson Township, Centre County, Pennsylvania, 16803, United States",NA,NA,NA,"United States of America"
"Pennsylvania State University","NA","Pennsylvania State University",2,40.8025835,-77.8559383,"Penn State University, West Cherry Lane, Krumrine, Ferguson Township, Centre County, Pennsylvania, 16803, United States",NA,NA,NA,"United States of America"
"Postdoctoral Researcher","NA","Postdoctoral Researcher",2,NA,NA,NA,NA,NA,NA,NA
"Professor at European University Institute","NA","Professor at European University Institute",2,NA,NA,NA,NA,NA,NA,NA
"Queen's University Belfast","NA","Queen's University Belfast",2,54.5842881,-5.9336562,"Queen's University Belfast, Colenso Parade, Queen's Quarter, Belfast, County Antrim, Northern Ireland / Tuaisceart Éireann, BT9 5EX, United Kingdom",NA,NA,NA,"United Kingdom"
"RHUL","NA","RHUL",2,51.4244496,-0.5642561,"Royal Holloway, South Road, Englefield Green, Runnymede, Surrey, England, TW20 0RL, United Kingdom",NA,NA,NA,"United Kingdom"
"RWI - Leibniz Institute for Economic Research","NA","RWI - Leibniz Institute for Economic Research",2,NA,NA,NA,NA,NA,NA,NA
"Rice University","NA","Rice University",2,29.7167915,-95.4047811,"Rice University, 6100, Main Street, Houston, Harris County, Texas, 77005, United States",NA,NA,NA,"United States of America"
"SWPS University","NA","SWPS University",2,52.2483057,21.0653898,"Uniwersytet SWPS, 19/31, Chodakowska, Kamionek, Praga-Południe, Warszawa, województwo mazowieckie, 03-815, Polska",NA,NA,NA,"Poland"
"Seoul National University","NA","Seoul National University",2,37.46691,126.94771,"서울대학교, 신림로, 녹두거리, 대학동, 관악구, 서울특별시, 08825, 대한민국",NA,NA,NA,"South Korea"
"Spanish Research Council, IPP (CSIC)","NA","Spanish Research Council, IPP (CSIC)",2,NA,NA,NA,NA,NA,NA,NA
"Tecnologico de Monterrey; Tecnológico de Monterrey","Tecnológico de Monterrey; NA","Tecnológico de Monterrey",2,25.6509078,-100.2893611,"Tecnológico de Monterrey, Calle Filósofos, Tecnológico, Monterrey, Nuevo León, 64840, México",NA,NA,NA,"Mexico"
"Texas A& M University (TAMU); Texas A&M","Texas A&M; NA","Texas A&M",2,35.5934765,-105.7659817,"Texas A, Oak Road, Glorieta Camps, Glorieta, Santa Fe County, New Mexico, 87535, United States",NA,NA,NA,"United States of America"
"Texas Tech University","NA","Texas Tech University",2,33.5937525,-101.8995955,"Texas Tech University, 2500, Broadway, Lubbock, Lubbock County, Texas, 79409, United States",NA,NA,NA,"United States of America"
"The Ohio State University","NA","The Ohio State University",2,40.0056802,-83.0286612,"The Ohio State University, 281, West Lane Avenue, Carmenton, Columbus, Sharon, Franklin County, Ohio, 43210, United States",NA,NA,NA,"United States of America"
"The University of Hong Kong","NA","The University of Hong Kong",2,22.2826975,114.138455,"香港大學 The University of Hong Kong, 薄扶林道 Pok Fu Lam Road, 石塘咀 Shek Tong Tsui, 中西區 Central and Western District, 香港島 Hong Kong Island, 香港 Hong Kong, 中国",NA,NA,NA,"Hong Kong"
"Toulouse School of Economics","NA","Toulouse School of Economics",2,NA,NA,NA,NA,NA,NA,NA
"UC","NA","UC",2,43.4714972,-3.8018803,"UNICAN, Avenida de los Castros, Barrio La Torre, Santander, Cantabria, 39005, España",NA,NA,NA,"Spain"
"UC Riverside","NA","UC Riverside",2,33.9642576,-117.3398097,"University of California, Riverside, 900, University Avenue, Riverside, Riverside County, California, 92521, United States",NA,NA,NA,"United States of America"
"Universidad Nacional de Educación a Distancia","NA","Universidad Nacional de Educación a Distancia",2,19.4290928,-99.1581155,"Universidad Nacional de Educación a Distancia, Calle Berlín, Juárez, Ciudad de México, Cuauhtémoc, Ciudad de México, 06600, México",NA,NA,NA,"Mexico"
"Universidad de los Andes","NA","Universidad de los Andes",2,4.6014026,-74.064905,"Universidad de los Andes, Carrera 2A, Las Aguas, UPZ La Candelaria, Bogotá, Bogotá, Distrito Capital, RAP (Especial) Central, 111711, Colombia",NA,NA,NA,"Colombia"
"Universitat de Valencia","NA","Universitat de Valencia",2,39.4604817,-0.3600927,"Universitat de València, 9, Carrer de l'Alcalde Reig, Montolivet, Quatre Carreres, València, Comarca de València, València / Valencia, Comunitat Valenciana, 46023, España",NA,NA,NA,"Spain"
"Universite Paris Saclay","NA","Universite Paris Saclay",2,48.7875098,2.3285887,"IUT de Cachan - Université Paris-Saclay, 9, Avenue de la Division Leclerc, Cité-Jardins, Cachan, L'Haÿ-les-Roses, Val-de-Marne, France métropolitaine, 94230, France",NA,NA,NA,"France"
"University of Bologna, Department of Political and Social Sciences","NA","University of Bologna, Department of Political and Social Sciences",2,NA,NA,NA,NA,NA,NA,NA
"University of Calgary","NA","University of Calgary",2,51.0799978,-114.1229561,"University, Crowchild Trail NW, Banff Trail, Calgary, Alberta, T2M 4K6, Canada",NA,NA,NA,"Canada"
"University of California, Riverside","NA","University of California, Riverside",2,NA,NA,NA,NA,NA,NA,NA
"University of Greifswald","NA","University of Greifswald",2,54.0894347,13.4048743,"Universität Greifswald, Samtens, West-Rügen, Vorpommern-Rügen, Mecklenburg-Vorpommern, 17491, Deutschland",NA,NA,NA,"Germany"
"University of Illinois Urbana-Champaign; University of Illinois, Urbana-Champaign","University of Illinois, Urbana-Champaign; NA","University of Illinois, Urbana-Champaign",2,40.0761545,-88.2233134,"University of Illinois Urbana-Champaign, Boudreau Circle, Urbana, Champaign County, Illinois, 61801, United States",NA,NA,NA,"United States of America"
"University of International and Business Economics","NA","University of International and Business Economics",2,39.977598,116.4215242,"对外经济贸易大学, 惠中大道, 小关街道, 朝阳区, 北京市, 100029, 中国",NA,NA,NA,"China"
"University of Lausanne","NA","University of Lausanne",2,46.5225695,6.5809499,"Université de Lausanne, Route de Chavannes, Lausanne, District de Lausanne, Vaud, 1020, Schweiz/Suisse/Svizzera/Svizra",NA,NA,NA,"Switzerland"
"School of Politics and International Studies of the University of Leeds.; University of Leeds","University of Leeds; NA","University of Leeds",2,53.8057925,-1.555111,"University of Leeds, Cromer Street, Woodhouse Carr, Woodhouse, Leeds, West Yorkshire, England, LS2 9JY, United Kingdom",NA,NA,NA,"United Kingdom"
"University of Louvain and CEPR","NA","University of Louvain and CEPR",2,NA,NA,NA,NA,NA,NA,NA
"University of Melbourne","NA","University of Melbourne",2,-37.8241371,144.9170886,"University of Melbourne (Future Fishermans Bend Campus), Fishermans Bend, Port Melbourne, Melbourne, City of Melbourne, Victoria, 3207, Australia",NA,NA,NA,"Australia"
"University of Milano-Bicocca, Department of Sociology and Social Research","NA","University of Milano-Bicocca, Department of Sociology and Social Research",2,NA,NA,NA,NA,NA,NA,NA
"University of North Carolina at Chapel Hill","NA","University of North Carolina at Chapel Hill",2,35.9050353,-79.0477533,"University of North Carolina at Chapel Hill, Fordham Boulevard South, Chapel Hill, Orange County, North Carolina, 27599, United States",NA,NA,NA,"United States of America"
"University of North Carolina at Chapel Hill; Robert Schuman Centre for Advanced Studies, European University Institute; University of North Carolina-Chapel Hill","University of North Carolina-Chapel Hill; NA","University of North Carolina-Chapel Hill",2,35.9050353,-79.0477533,"University of North Carolina at Chapel Hill, Fordham Boulevard South, Chapel Hill, Orange County, North Carolina, 27599, United States",NA,NA,NA,"United States of America"
"University of Oklahoma","NA","University of Oklahoma",2,35.4894285,-97.5387128,"University, Oklahoma City, Oklahoma County, Oklahoma, United States",NA,NA,NA,"United States of America"
"University of Saarland","NA","University of Saarland",2,49.2542853,7.0415071,"Universität des Saarlandes, Campus, Universität, St. Johann, Bezirk Mitte, Saarbrücken, Regionalverband Saarbrücken, Saarland, 66123, Deutschland",NA,NA,NA,"Germany"
"University of Stuttgart, Department of Political Science and Political Sociology.","NA","University of Stuttgart, Department of Political Science and Political Sociology.",2,NA,NA,NA,NA,NA,NA,NA
"University of Toronto; University of Toronto, Canada","NA; University of Toronto","University of Toronto",2,43.663462,-79.3977597,"University of Toronto, St. Mary Street, Clover Hill, Toronto Centre, Toronto, Golden Horseshoe, Ontario, M4Y 2R4, Canada",NA,NA,NA,"Canada"
"University of Wisconsin - Madison","NA","University of Wisconsin - Madison",2,43.0802745,-89.4309587,"University of Wisconsin-Madison, Du Rose Terrace, Rocky Bluff, Madison, Dane County, Wisconsin, 53705, United States",NA,NA,NA,"United States of America"
"Université de Namur; Université de Namur; World Inequality Lab, Paris School of Economics","NA; Université de Namur","Université de Namur",2,50.4663739,4.8585708,"UNamur, Place du Palais de Justice, Bomel, Namur, Fernelmont, Namur, Wallonie, 5000, België / Belgique / Belgien",NA,NA,NA,"Belgium"
"Vilnius University","NA","Vilnius University",2,54.682847,25.2878406,"Vilniaus universitetas, Pilies g., Senamiestis, Senamiesčio seniūnija, Vilnius, Vilniaus miesto savivaldybė, Vilniaus apskritis, 01403, Lietuva",NA,NA,NA,"Lithuania"
"Washington University St. Louis; Washington University in St. Louis (WashU)","NA; Washington University St. Louis","Washington University St. Louis",2,38.6472402,-90.3084017,"Washington University in St. Louis, Centennial Greenway, Saint Louis, Saint Louis County, Missouri, 63130, United States",NA,NA,NA,"United States of America"
"Wirtschaftsuniversität Wien","NA","Wirtschaftsuniversität Wien",2,48.2138034,16.4081745,"Wirtschaftsuniversität Wien, 1, Welthandelsplatz, KG Leopoldstadt, Leopoldstadt, Wien, 1020, Österreich",NA,NA,NA,"Austria"
"Yeditepe University","NA","Yeditepe University",2,40.9713319,29.1506076,"Yeditepe Üniversitesi, Çamoluk Sokağı, İnönü Mahallesi, Ataşehir, İstanbul, Marmara Bölgesi, 34755, Türkiye",NA,NA,NA,"Turkey"
"Åbo Akademi University","NA","Åbo Akademi University",2,60.4534537,22.2794289,"Åbo Akademi, Kasarminkatu, Kasarmialue, I, Keskusta, Turku, Turun seutukunta, Varsinais-Suomi, Manner-Suomi, 20500, Suomi / Finland",NA,NA,NA,"Finland"
"Aix-Marseille School of Economics","NA","Aix-Marseille School of Economics",1,NA,NA,NA,NA,NA,NA,NA
"Alexandru Ioan Cuza University","NA","Alexandru Ioan Cuza University",1,47.1742067,27.5713755,"Universitatea Alexandru Ioan Cuza din Iași, 11, Bulevardul Carol I, Copou, Păcurari, Iași, Zona Metropolitană Iași, Iași, 700506, România",NA,NA,NA,"Romania"
"Arkansas State University","NA","Arkansas State University",1,35.8447472,-90.6726256,"Arkansas State University, 2105, Aggie Road, Jonesboro, Craighead County, Arkansas, 72401, United States",NA,NA,NA,"United States of America"
"Australian National University; University of Southampton","NA","Australian National University; University of Southampton",1,NA,NA,NA,NA,NA,NA,NA
"Bahcesehir University","NA","Bahcesehir University",1,41.0418504,29.0096979,"BAU Beşiktaş, İskele Yolu, Çırağan, Yıldız Mahallesi, Beşiktaş, İstanbul, Marmara Bölgesi, 34349, Türkiye",NA,NA,NA,NA
"Bank of England","NA","Bank of England",1,NA,NA,NA,NA,NA,NA,NA
"Birkbeck University of London","NA","Birkbeck University of London",1,51.5218449,-0.1302155,"Birkbeck College, Malet Street, Saint Giles, Bloomsbury, London Borough of Camden, London, Greater London, England, WC1E 7HX, United Kingdom",NA,NA,NA,"United Kingdom"
"Bowdoin College","NA","Bowdoin College",1,45.5829865,-122.7279919,"North Bowdoin Street, University Park, Portland, Multnomah County, Oregon, 97203, United States",NA,NA,NA,"United States of America"
"CEGA, University of Berkeley","NA","CEGA, University of Berkeley",1,NA,NA,NA,NA,NA,NA,NA
"CREST, Ecole Polytechnique","NA","CREST, Ecole Polytechnique",1,NA,NA,NA,NA,NA,NA,NA
"Cairo University","NA","Cairo University",1,30.0268119,31.2059186,"جامعة القاهرة, شارع صلاح سالم, الجيزة, 12541, مصر",NA,NA,NA,"Egypt"
"California State University, Los Angeles","NA","California State University, Los Angeles",1,34.0664949,-118.1671415,"California State University Los Angeles, 5151, State University Drive, East Los Angeles, Los Angeles County, California, 90032, United States",NA,NA,NA,"United States of America"
"Carnegie Mellon University","NA","Carnegie Mellon University",1,40.4441897,-79.9427192,"Carnegie Mellon University, Schenley Drive, Panther Hollow, Central Oakland, Pittsburgh, Allegheny County, Pennsylvania, 15213, United States",NA,NA,NA,"United States of America"
"Centre d'Études et de Recherches sur le Développement International (CEDRI)","NA","Centre d'Études et de Recherches sur le Développement International (CEDRI)",1,NA,NA,NA,NA,NA,NA,NA
"Centre for Advances Internet Studies Bochum","NA","Centre for Advances Internet Studies Bochum",1,NA,NA,NA,NA,NA,NA,NA
"Centre for Policy Research","NA","Centre for Policy Research",1,NA,NA,NA,NA,NA,NA,NA
"Centro de Estudios en Democracia y Asuntos Electorales","NA","Centro de Estudios en Democracia y Asuntos Electorales",1,NA,NA,NA,NA,NA,NA,NA
"Chalmers University of Technology","NA","Chalmers University of Technology",1,57.6897462,11.9765259,"Chalmers Tekniska Högskola, Pontus Wiknersgatan, Johanneberg, Centrum, Göteborg, Göteborgs Stad, Västra Götalands län, 411 32, Sverige",NA,NA,NA,"Sweden"
"Charles University","NA","Charles University",1,60.4518905,22.2791628,"Charles (Carlo) Bassi, Rothoviuksenkatu, Kasarmialue, I, Keskusta, Turku, Turun seutukunta, Varsinais-Suomi, Manner-Suomi, 20500, Suomi / Finland",NA,NA,NA,"Finland"
"City University London","NA","City University London",1,53.0028801,-2.2128877,"Royal Stoke University Hospital, Newcastle Road, Springfields, Stoke, Stoke-on-Trent, England, ST4 6QG, United Kingdom",NA,NA,NA,"United Kingdom"
"City University of New York","NA","City University of New York",1,40.7292053,-73.9950148,"New York University, Sullivan Street, University Village, Manhattan, New York County, City of New York, New York, 10012, United States",NA,NA,NA,NA
"Concordia College","NA","Concordia College",1,45.495244,-73.5785815,"Concordia University (SGW Campus), Rue Saint-Marc, Ville-Marie, Montréal, Agglomération de Montréal, Montréal (région administrative), Québec, H3H 2G4, Canada",NA,NA,NA,"Canada"
"Corvinus University of Budapest","NA","Corvinus University of Budapest",1,47.4862802,19.0581091,"Budapesti Corvinus Egyetem, 8, Fővám tér, Belső-Ferencváros, IX. kerület, Budapest, Közép-Magyarország, 1093, Magyarország",NA,NA,NA,"Hungary"
"Democracy Reporting International, Democracia em Xeque Institute","Democracia em Xeque Institute","Democracia em Xeque Institute",1,NA,NA,NA,NA,NA,NA,NA
"Deusto University","NA","Deusto University",1,43.2713665,-2.9386884,"Universidad de Deusto, Avenida de las Universidades / Unibertsitate etorbidea, Deustuko Doneperiaga, San Pedro de Deusto-La Ribera, Deusto, Bilbao, Bizkaia, Euskadi, 48011, España",NA,NA,NA,"Spain"
"Division of Social Science, New York University Abu Dhabi","NA","Division of Social Science, New York University Abu Dhabi",1,NA,NA,NA,NA,NA,NA,NA
"Division of Social Sciences, Ahmedabad University","NA","Division of Social Sciences, Ahmedabad University",1,NA,NA,NA,NA,NA,NA,NA
"Dublin City University","NA","Dublin City University",1,53.3855163,-6.2589563,"Inter Faith Centre (M), Collins Avenue, Whitehall A Ward 1986, Dublin, County Dublin, Leinster, D09 W5K6, Éire / Ireland",NA,NA,NA,"Ireland"
"ENS, Institut Jean Nicod","NA","ENS, Institut Jean Nicod",1,NA,NA,NA,NA,NA,NA,NA
"East Carolina University","NA","East Carolina University",1,35.6328512,-77.4852672,"East Carolina University, 1001, East 5th Street, Uptown District, Greenville, Pitt County, North Carolina, 27858, United States",NA,NA,NA,"United States of America"
"EconomiX, CNRS, Université Paris Nanterre","NA","EconomiX, CNRS, Université Paris Nanterre",1,NA,NA,NA,NA,NA,NA,NA
"Economist, Amazon.com","NA","Economist, Amazon.com",1,NA,NA,NA,NA,NA,NA,NA
"Emory University","NA","Emory University",1,33.8004546,-84.3172378,"Emory University, 201, Peavine Creek spur, Atlanta, DeKalb County, Georgia, 30322, United States",NA,NA,NA,"United States of America"
"European Centre for Social Welfare Policy and Research","NA","European Centre for Social Welfare Policy and Research",1,NA,NA,NA,NA,NA,NA,NA
"European Stability Mechanism","NA","European Stability Mechanism",1,NA,NA,NA,NA,NA,NA,NA
"FLACSO Paraguay","NA","FLACSO Paraguay",1,NA,NA,NA,NA,NA,NA,NA
"FORESIGHT Institute","NA","FORESIGHT Institute",1,33.4220356,-111.7848374,"Foresight Financial Services, 2135, East University Drive, Mesa, Maricopa County, Arizona, 85213, United States",NA,NA,NA,"United States of America"
"FORS","NA","FORS",1,29.6283673,52.5181595,"دانشکده مهندسی دانشگاه شیراز, خیابان ملاصدرا, ملاصدرا, منطقه ۱, شیراز, بخش مرکزی شیراز, شهرستان شیراز, استان فارس, 71346-44695, ایران",NA,NA,NA,"Iran"
"Faculty of Sociology, Bielefeld University","NA","Faculty of Sociology, Bielefeld University",1,NA,NA,NA,NA,NA,NA,NA
"Free University of Bozen-Bolzano","NA","Free University of Bozen-Bolzano",1,46.498298,11.3501018,"Freie Universität Bozen - Libera Università di Bolzano, 1, Piazza Università - Universitätsplatz, Centro Storico - Altstadt, Centro-Piani-Rencio - Zentrum-Bozner Boden-Rentsch, Bolzano - Bozen, Trentino-Alto Adige/Südtirol, 39100, Italia",NA,NA,NA,"Italy"
"Freie Universität Berlin","NA","Freie Universität Berlin",1,52.4528564,13.2907249,"Freie Universität Berlin, Kamillenstraße, Lichterfelde West, Dahlem, Steglitz-Zehlendorf, Berlin, 14195, Deutschland",NA,NA,NA,"Germany"
"Freie Universität, Berlin","NA","Freie Universität, Berlin",1,NA,NA,NA,NA,NA,NA,NA
"Frisch Centre","NA","Frisch Centre",1,NA,NA,NA,NA,NA,NA,NA
"Geneva Graduate Institute","NA","Geneva Graduate Institute",1,NA,NA,NA,NA,NA,NA,NA
"George Washington University","NA","George Washington University",1,38.8998938,-77.0474483,"George Washington University, Ward 2, Washington, District of Columbia, 20037, United States",NA,NA,NA,"United States of America"
"Georgetown University in Qatar","NA","Georgetown University in Qatar",1,NA,NA,NA,NA,NA,NA,NA
"Georgia State University","NA","Georgia State University",1,33.7535889,-84.3854209,"Georgia State University, 33, Gilmer Street Southeast, Georgia State, Old Fourth Ward, Atlanta, Fulton County, Georgia, 30303, United States",NA,NA,NA,"United States of America"
"Georgia State University; The Carter Center","NA","Georgia State University; The Carter Center",1,NA,NA,NA,NA,NA,NA,NA
"German Institute for Global and Area Studies (GIGA)","NA","German Institute for Global and Area Studies (GIGA)",1,NA,NA,NA,NA,NA,NA,NA
"Ghent University; Vrije Universiteit Brussel","NA","Ghent University; Vrije Universiteit Brussel",1,NA,NA,NA,NA,NA,NA,NA
"Grenoble Alpes University","NA","Grenoble Alpes University",1,44.9341217,4.9030427,"Université Grenoble Alpes, Avenue de Romans, Barnave, Valence, Drôme, Auvergne-Rhône-Alpes, France métropolitaine, 26000, France",NA,NA,NA,"France"
"HUN-REN CERS; CEU","NA","HUN-REN CERS; CEU",1,NA,NA,NA,NA,NA,NA,NA
"HUN-REN CERS; Central European University","NA","HUN-REN CERS; Central European University",1,NA,NA,NA,NA,NA,NA,NA
"IBEI","NA","IBEI",1,NA,NA,NA,NA,NA,NA,NA
"ICADE","NA","ICADE",1,40.4295621,-3.7114547,"Universidad Pontificia Comillas - ICADE, 23, Calle de Alberto Aguilera, Malasaña, Universidad, Chamberí, Centro, Madrid, Comunidad de Madrid, 28015, España",NA,NA,NA,"Spain"
"IEE, LED, Université Paris","NA","IEE, LED, Université Paris",1,NA,NA,NA,NA,NA,NA,NA
"IPP, CSIC","NA","IPP, CSIC",1,NA,NA,NA,NA,NA,NA,NA
"ISCTE-Lisbon University","NA","ISCTE-Lisbon University",1,38.7486143,-9.1540202,"ISCTE - Instituto Universitário de Lisboa, Avenida das Forças Armadas, Campo Grande, Alvalade, Lisboa, 1649-026, Portugal",NA,NA,NA,"Portugal"
"Independent Researcher","NA","Independent Researcher",1,NA,NA,NA,NA,NA,NA,NA
"Independent researcher","NA","Independent researcher",1,NA,NA,NA,NA,NA,NA,NA
"India Institute of Management Bangalore","NA","India Institute of Management Bangalore",1,12.8955829,77.6026219,"Indian Institute of Management Bangalore, Bannerghatta Road, Dollars Colony, Hulimavu, BTM Layout, Bengaluru, Bangalore South, Bengaluru Urban, Karnataka, 560076, India",NA,NA,NA,"India"
"Indian Institute of Technology Gandhinagar","NA","Indian Institute of Technology Gandhinagar",1,NA,NA,NA,NA,NA,NA,NA
"Indiana University","NA","Indiana University",1,39.1802358,-86.5093526,"Indiana University Bloomington, SR 45;SR 46, Bloomington, Monroe County, Indiana, 47408, United States",NA,NA,NA,"United States of America"
"Indiana University Bloomington","NA","Indiana University Bloomington",1,39.1802358,-86.5093526,"Indiana University Bloomington, SR 45;SR 46, Bloomington, Monroe County, Indiana, 47408, United States",NA,NA,NA,"United States of America"
"Insper","NA","Insper",1,-23.5987249,-46.6764305,"Insper, 300, Rua Quatá, Vila Olímpia, Itaim Bibi, São Paulo, Região Imediata de São Paulo, Região Metropolitana de São Paulo, São Paulo, Região Sudeste, 04546-042, Brasil",NA,NA,NA,"Brazil"
"Institut Barcelona d'Estudis Internacionals","NA","Institut Barcelona d'Estudis Internacionals",1,NA,NA,NA,NA,NA,NA,NA
"Institute for Political Science, University of Münster","NA","Institute for Political Science, University of Münster",1,NA,NA,NA,NA,NA,NA,NA
"Institute of Development Economics, Japan External Trade Organization","NA","Institute of Development Economics, Japan External Trade Organization",1,NA,NA,NA,NA,NA,NA,NA
"Institute of Geography, Economics, and Demography, CSIC","NA","Institute of Geography, Economics, and Demography, CSIC",1,NA,NA,NA,NA,NA,NA,NA
"Institute of Law, Politics, and Development Sant'Anna School of Advanced Studies","NA","Institute of Law, Politics, and Development Sant'Anna School of Advanced Studies",1,NA,NA,NA,NA,NA,NA,NA
"Institute of Policies and Public Goods, CSIC","NA","Institute of Policies and Public Goods, CSIC",1,NA,NA,NA,NA,NA,NA,NA
"Institute of Public Goods and Policies (CSIC)","NA","Institute of Public Goods and Policies (CSIC)",1,NA,NA,NA,NA,NA,NA,NA
"Institute of Public Goods and Policies, CSIC","NA","Institute of Public Goods and Policies, CSIC",1,NA,NA,NA,NA,NA,NA,NA
"Institute of Public Goods and Politics, CSIC","NA","Institute of Public Goods and Politics, CSIC",1,NA,NA,NA,NA,NA,NA,NA
"Institute of Public Goods, CSIC","NA","Institute of Public Goods, CSIC",1,NA,NA,NA,NA,NA,NA,NA
"Interdisciplinary Institute for Societal Computing, Saarland University","NA","Interdisciplinary Institute for Societal Computing, Saarland University",1,NA,NA,NA,NA,NA,NA,NA
"JPAL","NA","JPAL",1,NA,NA,NA,NA,NA,NA,NA
"Johannes Gutenberg University Mainz","NA","Johannes Gutenberg University Mainz",1,49.9920396,8.2371107,"Johannes Gutenberg-Universität Mainz, Eduard-Frank-Straße, Hartenberg-Münchfeld, Mainz, Rheinland-Pfalz, 55122, Deutschland",NA,NA,NA,"Germany"
"Johannes Gutenberg-Universität Mainz","NA","Johannes Gutenberg-Universität Mainz",1,49.9920396,8.2371107,"Johannes Gutenberg-Universität Mainz, Eduard-Frank-Straße, Hartenberg-Münchfeld, Mainz, Rheinland-Pfalz, 55122, Deutschland",NA,NA,NA,"Germany"
"Juan March Institute -Universidad Carlos III - Madrid","NA","Juan March Institute -Universidad Carlos III - Madrid",1,NA,NA,NA,NA,NA,NA,NA
"Juan March-Carlos III Institute / University Carlos III","NA","Juan March-Carlos III Institute / University Carlos III",1,NA,NA,NA,NA,NA,NA,NA
"KDI School of Public Policy and Management","NA","KDI School of Public Policy and Management",1,NA,NA,NA,NA,NA,NA,NA
"KU Leuven; Stanford University","NA","KU Leuven; Stanford University",1,NA,NA,NA,NA,NA,NA,NA
"KU Leuven; University of Antwerp","NA","KU Leuven; University of Antwerp",1,NA,NA,NA,NA,NA,NA,NA
"KU Leuven; Université de Montréal","NA","KU Leuven; Université de Montréal",1,NA,NA,NA,NA,NA,NA,NA
"King's College","NA","King's College",1,40.0029254,-82.9979442,"King's, East 19th Avenue, University District District 1, Columbus, Sharon, Franklin County, Ohio, 43210, United States",NA,NA,NA,"United States of America"
"King's College London; University of Oxford","NA","King's College London; University of Oxford",1,NA,NA,NA,NA,NA,NA,NA
"Konkuk University","NA","Konkuk University",1,37.5407875,127.0681712,"건대입구, 243, 아차산로, 화양동, 광진구, 서울특별시, 05073, 대한민국",NA,NA,NA,"South Korea"
"Lagos Business School, Pan-Atlantic University","NA","Lagos Business School, Pan-Atlantic University",1,NA,NA,NA,NA,NA,NA,NA
"Leuphana University Lüneburg,","NA","Leuphana University Lüneburg,",1,NA,NA,NA,NA,NA,NA,NA
"Lingnan University","NA","Lingnan University",1,22.4123588,113.9812852,"嶺南大學 Lingnan University, 8, 青山公路－嶺南段 Castle Peak Road – Lingnan, 虎地 Fu Tei, 桃園圍 To Yuen Wai, 麒麟圍 Kei Lun Wai, 屯門區 Tuen Mun District, 新界 New Territories, 香港 Hong Kong, 中国",NA,NA,NA,"Hong Kong"
"London Business School","NA","London Business School",1,51.5263869,-0.1611522,"London Business School, Park Road, Marylebone, London, Greater London, England, NW1 6BH, United Kingdom",NA,NA,NA,"United Kingdom"
"Loughborough University","NA","Loughborough University",1,52.763845,-1.2372582,"Loughborough University, Rydal Avenue, Loughborough, Charnwood, Leicestershire, England, LE11 3RF, United Kingdom",NA,NA,NA,"United Kingdom"
"Loyola Marymount University","NA","Loyola Marymount University",1,33.9687824,-118.4182021,"Loyola Marymount University, Bluff Creek Drive, Playa Vista, Los Angeles, Los Angeles County, California, 90096, United States",NA,NA,NA,"United States of America"
"Luiss University","NA","Luiss University",1,41.9215052,12.5132907,"LUISS, Via Parenzo, Trieste, Municipio Roma II, Roma, Roma Capitale, Lazio, 00199, Italia",NA,NA,NA,"Italy"
"Lusófona University","NA","Lusófona University",1,38.7581164,-9.1520127,"Universidade Lusófona de Humanidades e Tecnologias, Campo Grande, Alvalade, Lisboa, 1700-097, Portugal",NA,NA,NA,"Portugal"
"Luxembourg Institute of Socio-Economic Research (LISER)","NA","Luxembourg Institute of Socio-Economic Research (LISER)",1,NA,NA,NA,NA,NA,NA,NA
"M","NA","M",1,52.2033783,0.119922,"New Museums Site (University of Cambridge), Free School Lane, Newnham, Cambridge, Cambridgeshire, Cambridgeshire and Peterborough, England, CB2 3RQ, United Kingdom",NA,NA,NA,"United Kingdom"
"MIT","NA","MIT",1,42.3582529,-71.0966272,"Massachusetts Institute of Technology, Technology Square, Cambridge, Middlesex County, Massachusetts, 02238, United States",NA,NA,NA,"United States of America"
"Massachusetts Institute of Technology","NA","Massachusetts Institute of Technology",1,42.3582529,-71.0966272,"Massachusetts Institute of Technology, Technology Square, Cambridge, Middlesex County, Massachusetts, 02238, United States",NA,NA,NA,"United States of America"
"Max Planck Institute for Tax Law and Public Finance","NA","Max Planck Institute for Tax Law and Public Finance",1,NA,NA,NA,NA,NA,NA,NA
"Max Planck Institute for the Study of Religious and Ethnic Diversity","NA","Max Planck Institute for the Study of Religious and Ethnic Diversity",1,NA,NA,NA,NA,NA,NA,NA
"McCourt School of Public Policy, Georgetown University","NA","McCourt School of Public Policy, Georgetown University",1,NA,NA,NA,NA,NA,NA,NA
"McGill University","NA","McGill University",1,45.506875,-73.5790704,"McGill University, 845, Rue Sherbrooke Ouest, Quartier des Spectacles, Ville-Marie, Montréal, Agglomération de Montréal, Montréal (région administrative), Québec, H3A 3C6, Canada",NA,NA,NA,"Canada"
"Mercator Forum for Migration and Democracy (Forum MIDEM)","NA","Mercator Forum for Migration and Democracy (Forum MIDEM)",1,NA,NA,NA,NA,NA,NA,NA
"Mercator Research Institute on Global Commons and Climate Change and Brandenburg University of Technology, Cottbus","NA","Mercator Research Institute on Global Commons and Climate Change and Brandenburg University of Technology, Cottbus",1,NA,NA,NA,NA,NA,NA,NA
"Monash University","NA","Monash University",1,-37.7839745,144.9586743,"Monash University, Mile Lane, International House, Parkville, Melbourne, City of Melbourne, Victoria, 3052, Australia",NA,NA,NA,"Australia"
"Munich University","NA","Munich University",1,48.2654975,11.6692249,"Technische Universität München, Karl-Schwarzschild-Straße, Hochschul- und Forschungszentrum, Garching bei München, Landkreis München, Bayern, 85748, Deutschland",NA,NA,NA,"Germany"
"National Tsing Hua University","NA","National Tsing Hua University",1,24.7916987,120.9924295,"國立清華大學, 101, 光復路二段, 光明里, 東區, 新竹市, 300044, 臺灣",NA,NA,NA,"Taiwan"
"National and Kapodistrian University of Athens","NA","National and Kapodistrian University of Athens",1,NA,NA,NA,NA,NA,NA,NA
"New York University; NBER","NA","New York University; NBER",1,NA,NA,NA,NA,NA,NA,NA
"Northwestern","NA","Northwestern",1,42.0557157,-87.6752945,"Northwestern University, 633, Clark Street, Downtown, Evanston, Evanston Township, Cook County, Illinois, 60208, United States",NA,NA,NA,"United States of America"
"Northwestern University, USA","NA","Northwestern University, USA",1,NA,NA,NA,NA,NA,NA,NA
"Norwegian University of Science and Technology (NTNU)","NA","Norwegian University of Science and Technology (NTNU)",1,63.4480238,10.4536394,"NTNU Ringve botaniske hage, Fagerheim allé, Østmarkneset, Hasselbakken, Østbyen, Trondheim, Trøndelag, 7041, Norge",NA,NA,NA,"Norway"
"Nova School of Business and Economics","NA","Nova School of Business and Economics",1,-33.891747,151.1906267,"The Economics and Business Building, The University of Sydney, Darlington Lane, Darlington, Sydney, Council of the City of Sydney, New South Wales, 2008, Australia",NA,NA,NA,"Australia"
"Ohio State University","NA","Ohio State University",1,40.0056802,-83.0286612,"The Ohio State University, 281, West Lane Avenue, Carmenton, Columbus, Sharon, Franklin County, Ohio, 43210, United States",NA,NA,NA,"United States of America"
"Open University of Catalonia","NA","Open University of Catalonia",1,NA,NA,NA,NA,NA,NA,NA
"Oregon State University","NA","Oregon State University",1,44.5630559,-123.2839234,"Oregon State University, 1500, Southwest Jefferson Way, Corvallis, Benton County, Oregon, 97331, United States",NA,NA,NA,"United States of America"
"Oxford University Institute","NA","Oxford University Institute",1,51.7583164,-1.2651449,"Oxford University Press, Jericho, Oxford, Oxfordshire, England, OX2 6DP, United Kingdom",NA,NA,NA,"United Kingdom"
"Penn State University","NA","Penn State University",1,40.8025835,-77.8559383,"Penn State University, West Cherry Lane, Krumrine, Ferguson Township, Centre County, Pennsylvania, 16803, United States",NA,NA,NA,"United States of America"
"PhD Scholar at European University Institute","NA","PhD Scholar at European University Institute",1,NA,NA,NA,NA,NA,NA,NA
"Pontifical Catholic University of Chile","NA","Pontifical Catholic University of Chile",1,NA,NA,NA,NA,NA,NA,NA
"Potsdam Institute for Climate Impact Research (PIK)","NA","Potsdam Institute for Climate Impact Research (PIK)",1,NA,NA,NA,NA,NA,NA,NA
"Queen Mary, London","NA","Queen Mary, London",1,NA,NA,NA,NA,NA,NA,NA
"Queen’s University Belfast","NA","Queen’s University Belfast",1,54.5842881,-5.9336562,"Queen's University Belfast, Colenso Parade, Queen's Quarter, Belfast, County Antrim, Northern Ireland / Tuaisceart Éireann, BT9 5EX, United Kingdom",NA,NA,NA,"United Kingdom"
"Registraduría Nacional del Estado Civil de Colombia","NA","Registraduría Nacional del Estado Civil de Colombia",1,NA,NA,NA,NA,NA,NA,NA
"Roskilde School of Governance","NA","Roskilde School of Governance",1,NA,NA,NA,NA,NA,NA,NA
"Roskilde University","NA","Roskilde University",1,55.6526706,12.1391388,"Roskilde Universitet, Trekroner Forskerpark, Store Hede, Roskilde, Roskilde Kommune, Region Sjælland, Danmark",NA,NA,NA,"Denmark"
"Rowan University","NA","Rowan University",1,39.7103526,-75.1193267,"Rowan University, 201, Mullica Hill Road, Glassboro, Gloucester County, New Jersey, 08028, United States",NA,NA,NA,"United States of America"
"Sam Nunn School of International Affairs, Georgia Tech","NA","Sam Nunn School of International Affairs, Georgia Tech",1,NA,NA,NA,NA,NA,NA,NA
"Santa Fe Institute","NA","Santa Fe Institute",1,-31.6167562,-60.6752372,"Universidad Tecnológica Nacional Santa Fe, Lavaisse, Barrio Villa Setubal, Villa Setúbal, Santa Fe, Santa Fe Capital, Departamento La Capital, S3000, Argentina",NA,NA,NA,"Argentina"
"Science Po Paris","NA","Science Po Paris",1,NA,NA,NA,NA,NA,NA,NA
"Shanghai Jiao Tong University, School of International and Public Affairs","NA","Shanghai Jiao Tong University, School of International and Public Affairs",1,NA,NA,NA,NA,NA,NA,NA
"Simon Fraser University","NA","Simon Fraser University",1,49.2767096,-122.917803,"Simon Fraser University, 8888, University Drive West, Burnaby, Metro Vancouver Regional District, British Columbia, V5A 1S6, Canada",NA,NA,NA,"Canada"
"Singapore Management University","NA","Singapore Management University",1,1.296168,103.8500437,"Singapore Management University, 81, Victoria Street, Orchard Road, Museum, Central, Singapore, 188065, Singapore",NA,NA,NA,"Singapore"
"Social and Behavioral Sciences Department, Toulouse School of Economics; Institute for Advanced Study in Toulouse, Toulouse School of Economics","NA","Social and Behavioral Sciences Department, Toulouse School of Economics; Institute for Advanced Study in Toulouse, Toulouse School of Economics",1,NA,NA,NA,NA,NA,NA,NA
"Stack Data Strategy","NA","Stack Data Strategy",1,NA,NA,NA,NA,NA,NA,NA
"Stanford Graduate School of Business","NA","Stanford Graduate School of Business",1,NA,NA,NA,NA,NA,NA,NA
"State Ministry for the Economy, Labor, and Tourism Baden-Württemberg","NA","State Ministry for the Economy, Labor, and Tourism Baden-Württemberg",1,NA,NA,NA,NA,NA,NA,NA
"Stockholm School of Economics","NA","Stockholm School of Economics",1,56.9591273,24.1076116,"Rīgas Ekonomikas augstskola, 4A, Strēlnieku iela, Centra rajons, Centrs, Centra apkaime, Rīga, LV-1010, Latvija",NA,NA,NA,"Latvia"
"Syarif Hidayatullah State Islamic University","NA","Syarif Hidayatullah State Islamic University",1,NA,NA,NA,NA,NA,NA,NA
"Syracuse University","NA","Syracuse University",1,43.0171129,-76.1185536,"Syracuse University, Tecumseh Road, University Neighborhood, City of Syracuse, Onondaga County, New York, 13210, United States",NA,NA,NA,"United States of America"
"Södertörn University","NA","Södertörn University",1,59.2192064,17.9431421,"Södertörns högskola, Hälsovägen, Visättra, Flemingsberg, Huddinge kommun, Stockholms län, 141 56, Sverige",NA,NA,NA,"Sweden"
"Technical University of Denmark","NA","Technical University of Denmark",1,55.7854145,12.5202151,"Danmarks Tekniske Universitet, Akademivej, Lundtofte, Kongens Lyngby, Lyngby-Taarbæk Kommune, Region Hovedstaden, 2800, Danmark",NA,NA,NA,"Denmark"
"Technische Universität Darmstadt","NA","Technische Universität Darmstadt",1,49.8611517,8.681944,"Technische Universität Darmstadt, Luisenplatz, Stadtzentrum, Darmstadt-Mitte, Darmstadt, Hessen, 64283, Deutschland",NA,NA,NA,"Germany"
"Tencent Americas","NA","Tencent Americas",1,NA,NA,NA,NA,NA,NA,NA
"The Brattle Group","NA","The Brattle Group",1,NA,NA,NA,NA,NA,NA,NA
"The Chinese University of Hong Kong, Shenzhen","NA","The Chinese University of Hong Kong, Shenzhen",1,22.693965,114.1970343,"香港中文大学(深圳)上园, 大学道, 龙城街道, 龙岗区, 深圳市, 广东省, 518100, 中国",NA,NA,NA,"China"
"The Institute of International Relations at the University of the West Indies","NA","The Institute of International Relations at the University of the West Indies",1,NA,NA,NA,NA,NA,NA,NA
"The Pennsylvania State University","NA","The Pennsylvania State University",1,40.8025835,-77.8559383,"Penn State University, West Cherry Lane, Krumrine, Ferguson Township, Centre County, Pennsylvania, 16803, United States",NA,NA,NA,"United States of America"
"The University of New South Wales","NA","The University of New South Wales",1,NA,NA,NA,NA,NA,NA,NA
"The University of the Southern Caribbean","NA","The University of the Southern Caribbean",1,10.6911429,-61.408239,"University of the Southern Caribbean, Acono Road, Acono, Tunapuna-Piarco, 310407, Trinidad and Tobago",NA,NA,NA,"Trinidad and Tobago"
"Toulouse School of Economics and Institute of Advanced Studies Toulouse (IAST)","NA","Toulouse School of Economics and Institute of Advanced Studies Toulouse (IAST)",1,NA,NA,NA,NA,NA,NA,NA
"UC Merced","NA","UC Merced",1,37.365182,-120.4225275,"University of California, Merced, 5200, Shaver Lake Road, Merced, Merced County, California, 95343, United States",NA,NA,NA,"United States of America"
"UMass Amherst","NA","UMass Amherst",1,42.3868955,-72.5299842,"University of Massachusetts Amherst, Stockbridge Street, North Hadley, Hadley, Hampshire County, Massachusetts, 01003, United States",NA,NA,NA,"United States of America"
"UNC Chapel Hill","NA","UNC Chapel Hill",1,35.9050353,-79.0477533,"University of North Carolina at Chapel Hill, Fordham Boulevard South, Chapel Hill, Orange County, North Carolina, 27599, United States",NA,NA,NA,"United States of America"
"UNU-WIDER","NA","UNU-WIDER",1,NA,NA,NA,NA,NA,NA,NA
"Universidad Andres Bello","NA","Universidad Andres Bello",1,-33.4514856,-70.6669849,"Universidad Andres Bello, 2212, Sazié, Barrio República, Santiago, Provincia de Santiago, Región Metropolitana de Santiago, 8370136, Chile",NA,NA,NA,"Chile"
"Universidad Carlos III (Juan March Institute)","NA","Universidad Carlos III (Juan March Institute)",1,NA,NA,NA,NA,NA,NA,NA
"Universidad Carlos III (Juan March Institute); Ohio State University","NA","Universidad Carlos III (Juan March Institute); Ohio State University",1,NA,NA,NA,NA,NA,NA,NA
"Universidad Carlos III Madrid","NA","Universidad Carlos III Madrid",1,40.3327973,-3.7653449,"Universidad Carlos III de Madrid, 30, Avenida de la Universidad, Batallas, San Nicasio, Leganés, Comunidad de Madrid, 28911, España",NA,NA,NA,"Spain"
"Universidad Católica de Chile","NA","Universidad Católica de Chile",1,-33.4417749,-70.6403258,"Pontificia Universidad Católica de Chile, 360, Avenida Libertador Bernardo O'Higgins, Barrio Lastarria, Santiago, Provincia de Santiago, Región Metropolitana de Santiago, 6500808, Chile",NA,NA,NA,"Chile"
"Universidad Diego Portales, Chile","NA","Universidad Diego Portales, Chile",1,NA,NA,NA,NA,NA,NA,NA
"Universidad Europea Madrid","NA","Universidad Europea Madrid",1,40.3727017,-3.9185823,"Universidad Europea de Madrid, Calle Manzanares, Villaviciosa de Odón, Comunidad de Madrid, 28670, España",NA,NA,NA,"Spain"
"Universidad Nacional de Educación a Distancia (UNED)","NA","Universidad Nacional de Educación a Distancia (UNED)",1,38.8244735,-0.6118279,"Universidad Nacional de Educación A Distancia Uned, Avinguda de Jacinto Benavente, Ontinyent, la Vall d'Albaida, València / Valencia, Comunitat Valenciana, 46870, España",NA,NA,NA,"Spain"
"Universidad de Alcalá de Henares","NA","Universidad de Alcalá de Henares",1,40.4823302,-3.3630642,"Universidad de Alcalá de Henares, Patio de Santo Tomás de Villanueva, Venecia, Distrito I, Alcalá de Henares, Comunidad de Madrid, 28801, España",NA,NA,NA,"Spain"
"Universidad de Burgos","NA","Universidad de Burgos",1,42.3413549,-3.7283532,"Universidad de Burgos - Servicios Centrales, Calle Rollo, Hospital del Rey, Distrito Oeste, Burgos, Castilla y León, 09001, España",NA,NA,NA,"Spain"
"Universidad de Costa Rica-ECP-CIEP; PEN-CONARE","NA","Universidad de Costa Rica-ECP-CIEP; PEN-CONARE",1,NA,NA,NA,NA,NA,NA,NA
"Universidad de Deusto (Bilbao, España)","NA","Universidad de Deusto (Bilbao, España)",1,NA,NA,NA,NA,NA,NA,NA
"Universidad de Granada","NA","Universidad de Granada",1,37.1849134,-3.6010102,"Rectorado de la Universidad de Granada, Avenida Divina Pastora, Barrio del Hospital Real, San Ildefonso, Beiro, Granada, Partido Judicial de Granada, Granada, Andalucía, 18012, España",NA,NA,NA,"Spain"
"Universidad de País Vasco","NA","Universidad de País Vasco",1,43.3092769,-2.0106678,"Euskal Herriko Unibertsitatea, Ibaeta Campusa, Zarautz kalea, Lugaritz, Ibaeta, Mendebaldea, Donostia / San Sebastián, Gipuzkoa, Euskadi, 20008, España",NA,NA,NA,"Spain"
"Universidad de San Andrés","NA","Universidad de San Andrés",1,-34.4461878,-58.5302426,"Universidad de San Andrés, Vito Dumas, Punta Chica, Victoria, Partido de San Fernando, Buenos Aires, B1644BHH, Argentina",NA,NA,NA,"Argentina"
"Universidad de la Coruña","NA","Universidad de la Coruña",1,NA,NA,NA,NA,NA,NA,NA
"Universidad del Pacífico","NA","Universidad del Pacífico",1,-12.0838826,-77.0483187,"Universidad del Pacífico, 2020, Avenida General Salaverry, Risso, Lince, Lima, Lima Metropolitana, Lima, 15072, Perú",NA,NA,NA,"Peru"
"Universidad del Rosario","NA","Universidad del Rosario",1,4.6000106,-74.0733473,"Universidad del Rosario, Avenida Carrera 7, La Catedral, UPZ La Candelaria, Bogotá, Bogotá, Distrito Capital, RAP (Especial) Central, 111711, Colombia",NA,NA,NA,"Colombia"
"Universidade da Coruña","NA","Universidade da Coruña",1,43.3587285,-8.4115253,"UIE Universidade - Campus da Coruña, 31, Ronda de Nelle, A Falperra, Santa Margarida, A Coruña, Galicia, 15007, España",NA,NA,NA,"Spain"
"Universitat Internacional de Catalunya","NA","Universitat Internacional de Catalunya",1,41.4057237,2.123525,"Universitat Internacional de Catalunya, Carrer de la Immaculada, Sant Gervasi - la Bonanova, Sarrià - Sant Gervasi, Barcelona, Barcelonès, Barcelona, Catalunya, 08017, España",NA,NA,NA,"Spain"
"Universitat Oberta de Catalunya","NA","Universitat Oberta de Catalunya",1,41.1538709,1.1003996,"Universitat Oberta de Catalunya, Carrer de l'Escorxador, el Carme, Mare Molas, Reus, Baix Camp, Tarragona, Catalunya, 43202, España",NA,NA,NA,"Spain"
"Universitat de València","NA","Universitat de València",1,39.4604817,-0.3600927,"Universitat de València, 9, Carrer de l'Alcalde Reig, Montolivet, Quatre Carreres, València, Comarca de València, València / Valencia, Comunitat Valenciana, 46023, España",NA,NA,NA,"Spain"
"Universiteit Antwerpen; Vrije Universiteit Brussel","Universiteit Antwerpen","Universiteit Antwerpen",1,51.2243191,4.4114471,"Universiteit Antwerpen, Kauwenstraatje, Universiteitsbuurt, Antwerpen-Noord, Antwerpen, Vlaanderen, 2000, België / Belgique / Belgien",NA,NA,NA,"Belgium"
"Universiteit Utrecht","NA","Universiteit Utrecht",1,52.0905682,5.1232736,"Universiteit Utrecht, 22, Achter de Dom, Domplein, Neude, Janskerkhof, Binnenstad City- En Winkelgebied, Binnenstad, Utrecht, Nederland, 3512 JP, Nederland",NA,NA,NA,"Netherlands"
"University at Albany - SUNY","NA","University at Albany - SUNY",1,NA,NA,NA,NA,NA,NA,NA
"University at Albany, State University of New York","NA","University at Albany, State University of New York",1,42.6639622,-73.7802589,"University at Albany Downtown Campus - Alumni Quad, University at Albany - Alumni Quad, City of Albany, Albany County, New York, 12203, United States",NA,NA,NA,"United States of America"
"University of Alabama","NA","University of Alabama",1,33.2120822,-87.5396735,"University of Alabama, Jack Warner Parkway Northeast, Riverview, Tuscaloosa, Tuscaloosa County, Alabama, 35487, United States",NA,NA,NA,"United States of America"
"University of Antwerp, Department of Political Science","NA","University of Antwerp, Department of Political Science",1,NA,NA,NA,NA,NA,NA,NA
"University of Antwerp; Vrije Universiteit Brussel","NA","University of Antwerp; Vrije Universiteit Brussel",1,NA,NA,NA,NA,NA,NA,NA
"University of Bamberg","NA","University of Bamberg",1,49.9073867,10.9042038,"Otto-Friedrich-Universität Bamberg, 21, Feldkirchenstraße, Bamberg-Ost, Bamberg, Bayern, 96052, Deutschland",NA,NA,NA,"Germany"
"University of Bremen","NA","University of Bremen",1,53.1079646,8.8556646,"Universität Bremen, 1, Bibliothekstraße, Lehe, Horn-Lehe, Bremen-Ost, Bremen, 28359, Deutschland",NA,NA,NA,"Germany"
"University of Bremen; WZB Berlin Social Science Center","NA","University of Bremen; WZB Berlin Social Science Center",1,NA,NA,NA,NA,NA,NA,NA
"University of Bristol","NA","University of Bristol",1,51.4905582,-2.6304825,"University of Bristol, Barrow Gurney, North Somerset, England, BS9 3RZ, United Kingdom",NA,NA,NA,"United Kingdom"
"University of British Columbia","NA","University of British Columbia",1,49.2654627,-123.2514625,"University of British Columbia, Crescent Road - xʷsel̓c̓əχən̓, University of British Columbia, Electoral Area A, Metro Vancouver Regional District, British Columbia, V6T, Canada",NA,NA,NA,NA
"University of California - San Diego","University of California San Diego","University of California San Diego",1,32.8792438,-117.2311247,"University of California, San Diego, 9500, Gilman Drive, San Diego, San Diego County, California, 92093, United States",NA,NA,NA,"United States of America"
"Professor at University of California, Irvine","University of California, Irvine","University of California, Irvine",1,33.6561481,-117.8870355,"Irvine-University, Irvine Avenue, South Mesa, Orange County, California, 92660, United States",NA,NA,NA,"United States of America"
"University of Chicago","NA","University of Chicago",1,41.7913968,-87.6008439,"The University of Chicago, 5801, South Ellis Avenue, Hyde Park, Chicago, Hyde Park Township, Cook County, Illinois, 60637, United States",NA,NA,NA,"United States of America"
"University of Denver","NA","University of Denver",1,39.6766157,-104.9623745,"University of Denver, 2199, South University Boulevard, Denver, Colorado, 80208, United States",NA,NA,NA,"United States of America"
"University of Deusto","NA","University of Deusto",1,43.2713665,-2.9386884,"Universidad de Deusto, Avenida de las Universidades / Unibertsitate etorbidea, Deustuko Doneperiaga, San Pedro de Deusto-La Ribera, Deusto, Bilbao, Bizkaia, Euskadi, 48011, España",NA,NA,NA,"Spain"
"University of Exeter; University of Oxford","NA","University of Exeter; University of Oxford",1,NA,NA,NA,NA,NA,NA,NA
"University of Geneva; University of Basel","NA","University of Geneva; University of Basel",1,NA,NA,NA,NA,NA,NA,NA
"University of Graz","NA","University of Graz",1,47.0778573,15.4498491,"Karl-Franzens-Universität Graz, Goethestraße, Univiertel, Geidorf, Graz, Steiermark, 8010, Österreich",NA,NA,NA,"Austria"
"University of Haifa","NA","University of Haifa",1,32.7609456,35.0204641,"אוניברסיטת חיפה, 705, רובע רמות הכרמל, חיפה, נפת חיפה, מחוז חיפה, 3498838, ישראל",NA,NA,NA,"Israel"
"University of Kansas","NA","University of Kansas",1,38.9535051,-95.2630922,"University of Kansas, 1450, Jayhawk Boulevard, Lawrence, Douglas County, Kansas, 66045, United States",NA,NA,NA,"United States of America"
"University of Lausanne; FORS","NA","University of Lausanne; FORS",1,NA,NA,NA,NA,NA,NA,NA
"University of Leicester","NA","University of Leicester",1,52.6296269,-1.1548475,"University of Leicester, Westcotes Drive, Westcotes, Leicester, City of Leicester, England, LE3 0DP, United Kingdom",NA,NA,NA,"United Kingdom"
"Department of Politics and Public Administration, University of Limerick, Ireland","University of Limerick","University of Limerick",1,52.6732581,-8.5698097,"University of Limerick, Milford Road, Castletroy, Ballysimon ED, The Metropolitan District of Limerick City, Limerick, County Limerick, Munster, V94 NX93, Éire / Ireland",NA,NA,NA,"Ireland"
"University of London","NA","University of London",1,51.524203,-0.1330007,"University College London, Starcross Street, Fitzrovia, London Borough of Camden, London, Greater London, England, NW1 2HR, United Kingdom",NA,NA,NA,"United Kingdom"
"University of Massachusetts-Lowell","NA","University of Massachusetts-Lowell",1,42.6519097,-71.3173628,"University of Massachusetts Lowell East Campus, Hall Street, City Hall Historic District, The Acre, Lowell, Middlesex County, Massachusetts, 01850, United States",NA,NA,NA,"United States of America"
"University of Minnesota","NA","University of Minnesota",1,44.9863392,-93.1794558,"The University of Minnesota, Twin Cities Campus, Southeast 7th Street, Marcy-Holmes, Falcon Heights, Hennepin County, Minnesota, 55455, United States",NA,NA,NA,"United States of America"
"University of Mississippi","NA","University of Mississippi",1,34.3646125,-89.5396349,"University of Mississippi, Hickory Lane, Oxford, Lafayette County, Mississippi, 38677, United States",NA,NA,NA,"United States of America"
"University of Modena & Reggio Emilia","NA","University of Modena & Reggio Emilia",1,44.5384728,10.9359609,"Modena, Emilia-Romagna, Italia",NA,NA,NA,"Italy"
"University of Montreal","NA","University of Montreal",1,45.5047577,-73.6145418,"Université de Montréal, 2900, Boulevard Édouard-Montpetit, Côte-des-Neiges, Côte-des-Neiges–Notre-Dame-de-Grâce, Montréal, Agglomération de Montréal, Montréal (région administrative), Québec, H3T 1J4, Canada",NA,NA,NA,"Canada"
"University of Muenster","NA","University of Muenster",1,51.9673422,7.5992433,"Universität Münster, Bismarckallee, Pluggendorf, Innenstadtring, Münster-Mitte, Münster, Nordrhein-Westfalen, 48151, Deutschland",NA,NA,NA,"Germany"
"University of Munich","NA","University of Munich",1,48.2654975,11.6692249,"Technische Universität München, Karl-Schwarzschild-Straße, Hochschul- und Forschungszentrum, Garching bei München, Landkreis München, Bayern, 85748, Deutschland",NA,NA,NA,"Germany"
"University of Münster","NA","University of Münster",1,51.9673422,7.5992433,"Universität Münster, Bismarckallee, Pluggendorf, Innenstadtring, Münster-Mitte, Münster, Nordrhein-Westfalen, 48151, Deutschland",NA,NA,NA,"Germany"
"University of Oxford; CEPR","NA","University of Oxford; CEPR",1,NA,NA,NA,NA,NA,NA,NA
"University of Pisa","NA","University of Pisa",1,43.4025782,10.41282,"Villa Celestina Università di Pisa Centro di Educazione Ambientale, Via della Pineta, Castiglioncello, Rosignano Marittimo, Livorno, Toscana, 57016, Italia",NA,NA,NA,NA
"University of Potsdam","NA","University of Potsdam",1,52.4014435,13.0087916,"Universität Potsdam: Campus I - Am Neuen Palais, 10, Am Neuen Palais, Brandenburger Vorstadt, Potsdam, Brandenburg, 14469, Deutschland",NA,NA,NA,"Germany"
"University of Sheffield","NA","University of Sheffield",1,53.3815042,-1.4833688,"University of Sheffield, Western Bank, Crookesmoor, Broomhill, Sheffield, South Yorkshire, England, S10 2TN, United Kingdom",NA,NA,NA,"United Kingdom"
"Darla Moore School of Business, University of South Carolina","University of South Carolina","University of South Carolina",1,33.9928841,-81.0268676,"University of South Carolina, Governor's Hill, Main Street District, Columbia, Richland County, South Carolina, 29201, United States",NA,NA,NA,"United States of America"
"School of Social Sciences, University of Tasmania, Australia","University of Tasmania","University of Tasmania",1,-42.906822,147.3218083,"University of Tasmania, Proctors Road, Dynnyrne, Hobart, City of Hobart, Tasmania, 7005, Australia",NA,NA,NA,"Australia"
"University of Texas, Austin","NA","University of Texas, Austin",1,30.2851494,-97.7339352,"University of Texas at Austin, 1, Allandale, Austin, Travis County, Texas, 78712, United States",NA,NA,NA,"United States of America"
"University of Uppsala","NA","University of Uppsala",1,59.8576363,17.6294616,"Uppsala universitet, 3, Biskopsgatan, Främre Luthagen, Fjärdingen, Uppsala, Uppsala kommun, Uppsala län, 753 11, Sverige",NA,NA,NA,"Sweden"
"University of Utah","NA","University of Utah",1,40.7768903,-111.9154927,"University, Salt Lake City, Salt Lake County, Utah, 84416, United States",NA,NA,NA,"United States of America"
"University of Washington","NA","University of Washington",1,NA,NA,NA,NA,NA,NA,NA
"University of Waterloo","NA","University of Waterloo",1,51.5052366,-0.1115945,"King's College London, Waterloo Campus, Stamford Street, South Bank, Waterloo, London Borough of Lambeth, London, Greater London, England, SE1 9NN, United Kingdom",NA,NA,NA,"United Kingdom"
"University of Wisconsin-Milwaukee","NA","University of Wisconsin-Milwaukee",1,43.077639,-87.8819425,"University of Wisconsin-Milwaukee, 2200, East Kenwood Boulevard, Upper East Side, East Side, Milwaukee, Milwaukee County, Wisconsin, 53211, United States",NA,NA,NA,"United States of America"
"Università degli Studi di Napoli Federico II","NA","Università degli Studi di Napoli Federico II",1,40.8477305,14.2566207,"Università degli Studi di Napoli Federico II, Vico Giuseppe Orilia, Porto, Municipalità 2, Napoli, Campania, 80138, Italia",NA,NA,NA,"Italy"
"Université Catholique de Lille","NA","Université Catholique de Lille",1,50.6326759,3.0449438,"Université catholique de Lille, 60, Boulevard Vauban, Vauban-Esquermes, Lille, Nord, Hauts-de-France, France métropolitaine, 59000, France",NA,NA,NA,"France"
"Université Laval","NA","Université Laval",1,46.7811622,-71.2768002,"Université Laval, 2325, Rue de l'Université, Saint-Thomas-d'Aquin, Cité-Universitaire, Sainte-Foy–Sillery–Cap-Rouge, Québec, Agglomération de Québec, Capitale-Nationale, Québec, G1V 0A6, Canada",NA,NA,NA,NA
"Université Paris Cité","NA","Université Paris Cité",1,48.8553937,2.3316437,"Université Paris Cité, 45, Rue des Saints-Pères, Quartier Saint-Thomas-d'Aquin, Paris 7e Arrondissement, Paris, France métropolitaine, 75006, France",NA,NA,NA,"France"
"Université de Lausanne","NA","Université de Lausanne",1,46.5225695,6.5809499,"Université de Lausanne, Route de Chavannes, Lausanne, District de Lausanne, Vaud, 1020, Schweiz/Suisse/Svizzera/Svizra",NA,NA,NA,"Switzerland"
"WSE UKSW","NA","WSE UKSW",1,NA,NA,NA,NA,NA,NA,NA
"Wageningen University & Research","NA","Wageningen University & Research",1,51.9685817,5.6682981,"Wageningen, Gelderland, Nederland",NA,NA,NA,"Netherlands"
"Wageningen University; Research, Technical University Berlin, and Potsdam Institute for Climate Impact Research","NA","Wageningen University; Research, Technical University Berlin, and Potsdam Institute for Climate Impact Research",1,NA,NA,NA,NA,NA,NA,NA
"Wake Forest University","NA","Wake Forest University",1,36.133893,-80.2755578,"Wake Forest University, 1834, Wake Forest Road, Charlton Farms, Brookwood, Winston-Salem, Forsyth County, North Carolina, 27109, United States",NA,NA,NA,"United States of America"
"Waseda University","NA","Waseda University",1,35.7091798,139.7197213,"早稲田大学早稲田キャンパス, 1, 西早稲田一丁目, 西早稲田, 新宿区, 東京都, 169-8050, 日本",NA,NA,NA,"Japan"
"Washington University in St. Louis; LMU Munich","NA","Washington University in St. Louis; LMU Munich",1,NA,NA,NA,NA,NA,NA,NA
"Weber State University","NA","Weber State University",1,41.1887229,-111.9456028,"Weber State University, 3848, Harrison Boulevard, Ogden, Weber County, Utah, 84408, United States",NA,NA,NA,"United States of America"
"Weizenbaum Institute","NA","Weizenbaum Institute",1,NA,NA,NA,NA,NA,NA,NA
"Wharton School, University of Pennsylvania","NA","Wharton School, University of Pennsylvania",1,NA,NA,NA,NA,NA,NA,NA
